name,tel,url,addr1,addr2,city,zip,longitude,latitude
O'reilly William & Co Ltd,(212) 396-1822,http://www.nyc.com/arts__attractions/oreilly_william__co_ltd.806/whats_nearby.aspx,52 E 76th St,,New York,10021,-73.96273075,40.77380087
Organization of Independent Artists - Gallery 402,(212) 219-9213,http://www.nonprofitgallery.com/main/usa/ny/oia.html,19 Hudson St.,,New York,10013,-74.00938579,40.71646851
Owen Gallery,(212) 879-2415,http://www.owengallery.com/about-us,19 E 75th St,,New York,10021,-73.96435178,40.77400085
P P O W Gallerie,(212) 647-1044,http://www.ppowgallery.com/,511 W 25th St,,New York,10001,-74.00389261,40.7495854
P P O W Inc,(212) 941-8642,http://www.nyc.com/arts__attractions/p_p_o_w_inc.260/whats_nearby.aspx,476 Broome St,,New York,10013,-74.0017639,40.72290743
P S 122 Gallery,(212) 228-4249,http://ps122gallery.org/,150 1st Ave,,New York,10009,-73.98437148,40.72816774
Pace Editions,(212) 645-9806,http://www.ziplocal.com/companies/103327232-Pace-Editions,44 W 18th St,,New York,10011,-73.99437671,40.73920195
Pace MacGill Gallery,(212) 759-7999,http://www.pacemacgill.com/exhibitions.html,32 E. 57th St.,9th Fl.,New York,10022,-73.97202175,40.76194965
Pace Prints & Primitive Gallery,(212) 421-3237,http://www.paceprints.com/,32 E. 57th St.,3rd Fl.,New York,10022,-73.97211462,40.76183647
Pace Wildenstein,(212) 929-7000,http://www.pacewildenstein.com/,534 W 25th St,,New York,10001,-74.00495118,40.74944828
Pace Wildenstein,(212) 421-3292,http://www.pacewildenstein.com/uploads/exhibitions/keith%20tyson_with%20images_new.pdf,32 E 57th St,Fl 4,New York,10022,-73.97207692,40.76188607
Paige's Art Gallery,(212) 531-1577,http://www.nyc.com/arts__attractions/paiges_art_gallery.1731/editorial_review.aspx,3163 Broadway,,New York,10027,-73.95927393,40.8150007
PaineWebber Gallery,(212) 713-2885,http://www.tfaoi.com/aa/1aa/1aa458.htm,1285 Sixth Ave.,,New York,10019,-73.98058387,40.76118894
Paint Can Studios,(718) 937-7360,http://ny.serviceslisted.com/1655944-PaintCanStudios.htm,3608 34th St,,Astoria,11106,-73.92794008,40.75515787
Paley Barbara K,(212) 333-4747,http://www.nyc.com/arts__attractions/paley_barbara_k.796/map_location.aspx,1776 Broadway,,New York,10019,-73.98148007,40.76637002
Pall William Inc,(212) 758-3340,http://local.botw.org/New_York/New_York/Pall_William_Inc/56447150.html,188 E 64th St,,New York,10021,-73.96481234,40.76450874
Palmer Meredith Gallery,(212) 828-9100,http://www.artinfo.com/galleryguide/12649/1149/meredith-palmer-gallery-ltd/visit/,40 E 94th St,,New York,10128,-73.95482249,40.78563342
Pandora Old Masters,(212) 628-1974,http://www.salondudessin.com/an/anpandora.html,212 E 70th St,,New York,10021,-73.96081641,40.76789235
Pardo Sheenan Galleries Ltd,(646) 935-0837,http://web2.userinstinct.com/30816848-pardo-sheenan-galleries-ltd.htm,121 E 31st St,,New York,10016,-73.98156102,40.7448961
Parker's Box,(718) 388-2882,http://www.parkersbox.com/exhibitions/current/08/EDITH_PressRelease.pdf,193 Grand St,,Brooklyn,11211,-73.96044471,40.71430916
Parsons Galleries,(212) 229-8987,http://www.parsonswest.com/,2 W. 13th St.,,New York,10011,-73.99478186,40.73539495
Patricia Laligant Photographs,(212) 252-9922,http://www.patricialaligant.com/intro.htm,150 W 28th St,,New York,10001,-73.99282055,40.74676021
Patrick's Gallery,(212) 741-7453,http://outalot.com/listings/318942-Patricks-Gallery,220 W 19th St,,New York,10011,-73.99851017,40.74186878
Paul Kasmin Gallery,(212) 563-4474,http://www.paulkasmingallery.com/,293 10th Ave,,New York,10001,-74.00272286,40.75019275
Paula Cooper Gallery,(212) 255-1105,http://www.paulacoopergallery.com/,534 W. 21st St.,,New York,10011,-74.00689773,40.7469199
Peck Ian Fine Paintings Ltd,(212) 396-2442,http://gallerydriver.com/?method=Gallery.GalleryDetail&GalleryID=489D01E8-3048-28EB-92857B8592DAED09,980 Madison Ave,,New York,10021,-73.96365013,40.77476053
Peder Bonnier Inc,(646) 638-0878,http://web2.userinstinct.com/30816857-peder-bonnier-inc.htm,206 W 23rd St,Fl 4,New York,10011,-73.99623914,40.74405995
Perimeter Gallery,(212) 675-1585,http://www.spoke.com/info/c633Fr3/PerimeterGalleryInc,511 W 25th St,,New York,10001,-74.00389939,40.74938125
Perlow Rich Katharina Gallery Inc,(212) 644-7171,http://www.artnet.com/katharinarichperlow.html,41 E 57th St,,New York,10022,-73.97163996,40.76236541
Peter L Villa Fine Art,(212) 371-1196,http://peterlvillafineart.com/,110 E 57th St,,New York,10022,-73.97029437,40.7611697
Peter Rose Gallery,(212) 759-8173,http://peterrosegallery.com/,200 E 58th St,Apt 20C,New York,10022,-73.96690495,40.76057555
Peters Gerald Gallery,(212) 628-9760,http://www.gpgallery.com/,24 E 78th St,,New York,10075,-73.96316937,40.77566356
Phoenix Design Ltd,(718) 423-3458,http://www.topix.net/yp/flushing-ny/2161581053-phoenix-design-ltd,21415 41st Ave,,Bayside,11361,-73.77059062,40.76366855
Phoenix Gallery,(212) 226-8711,http://www.phoenix-gallery.com/phoenixgalleryfellowship2009.pdf,210 ELEVENTH AVENUE,SUITE 902,New York,10001,-74.00599167,40.74977525
Phoneup,(212) 219-8287,http://www.nyc.com/arts__attractions/phoneup.642/map_location.aspx,55 Chrystie St,,New York,10002,-73.99502605,40.71651672
Photo & Art Gallery,(718) 471-7840,http://www.yelp.com/biz/photo-and-art-gallery-far-rockaway,1023 Beach 20th St,,Far Rockaway,11691,-73.75339447,40.6029621
Photo Collection Gagliardi,(212) 229-1816,http://www.gagliardiphoto.com/contact.htm,27 W 20th St,,New York,10011,-73.99269647,40.74063767
Photo District Gallery,(212) 807-8787,http://wap.outalot.com/listings/319183-Photo-District-Gallery,37 W 20th St,Lbby,New York,10011,-73.99310574,40.74080485
Phyllis Lucas Gallery Inc,(212) 755-1516,http://www.phyllislucasgallery.com/,981 2nd Ave,,New York,10022,-73.96795086,40.75614508
Picture This Corporate Art,(718) 625-2722,http://www.ptcanyc.com/,249 Smith Street,# 102,Brooklyn,11231,-73.9926035,40.68324194
Pierogi 2000,(718) 599-2144,http://www.pierogi2000.com/,177 N 9th St,,Brooklyn,11211,-73.9557816,40.71875035
Place Des Vosges,(212) 995-2899,http://local.yahoo.com/info-11035506-place-des-vosges-manhattan,816 Broadway,,New York,10003,-73.99094408,40.73276122
Plane Space,(917) 606-1268,http://www.artinfo.com/galleryguide/20261/6796/115454/plane-space-new-york/exhibition/gangbusters/,102 Charles St,,New York,10014,-74.00518363,40.73439963
Plaster Palace,(718) 621-3175,http://www.merchantcircle.com/business/Plaster.Palace.718-621-3175,5305 18th Ave,,Brooklyn,11204,-73.98315035,40.62575957
Plaza Holding Inc,(212) 247-4744,http://m.nyc.com/arts__attractions/plaza_holding_inc.300/map_location.aspx,15 W 55th St,,New York,10019,-73.97575362,40.76215882
Plaza Holding Inc,(212) 956-1900,http://www.nyc.com/arts__attractions/plaza_holding_inc.300/whats_nearby.aspx,15 W 55th St,,New York,10019,-73.97568006,40.76226036
Plaza Watch & Jewelry Exchange,(212) 246-2000,http://local.botw.org/New_York/New_York/Plaza_Watch_and_Jewelry_Exchange/55631196.html,145 W 57th St,,New York,10019,-73.97867414,40.76526144
Pleiades Gallery,(646) 230-0056,http://www.pleiadesgallery.com/index.html,530 W 25th St,,New York,10001,-74.00477069,40.74937493
Plum Blossom Gallery,(212) 719-7008,http://www.plumblossoms.com/,555 W 25th St,,New York,10001,-74.00537358,40.75017633
Polizzi Fine Art,(718) 680-6777,http://www.polizzifineart.com/,7813 3rd Ave,,Brooklyn,11209,-74.02860202,40.62887622
Poller Leah,(212) 274-1704,http://www.sculpture.org/portfolio/sculptorPage.php?sculptor_id=1003310,98 Greene St,,New York,10012,-73.99973976,40.72417671
Portara Gallery,(718) 224-7093,http://newyork.citysearch.com/profile/map/12036088/bayside_ny/portara_gallery.html,4720A Bell Blvd,,Bayside,11361,-73.76753264,40.75653978
Portico Fine Art,(212) 941-8248,http://www.porticony.com/,139 Spring St,,New York,10012,-74.00082666,40.72425932
Portrait Gallery,(718) 377-8762,http://brooklyn.ny.povo.com/Portrait_Gallery_%28Kings_Highway%29,5100 Kings Plz,,Brooklyn,11234,-73.92228135,40.60993574
Postmasters Gallery,(212) 727-3323,http://www.postmastersart.com/,459 W 19th St,,New York,10011,-74.0053466,40.74520243
Praxis International Art,(212) 772-9478,http://galleries.absolutearts.com/galleries/praxis-art/index.html,25 E 73rd St,Fl 4,New York,10021,-73.96513542,40.77277684
Prieto International Attorney In Fact Johnpoll,(212) 267-6790,http://m.nyc.com/arts__attractions/prieto_international_attorney_in_fact_johnpoll.793/whats_nearby.aspx?sec=pha,127 Fulton St,,New York,10038,-74.00723565,40.71024984
Prince Street Gallery,(646) 230-0246,http://www.princestreetgallery.com/contact.html,530 W 25th St,,New York,10001,-74.0046948,40.7493379
Professional Fine Arts Svces Inc,(646) 336-6613,http://www.nyc.com/arts__attractions/professional_fine_arts_svces_inc.724/editorial_review.aspx,141 W 20th St,,New York,10011,-73.9957317,40.74191723
Proposition the,(212) 242-0035,http://www.theproposition.com/,162 11th Ave,,New York,10011,-74.00714842,40.7482054
Public Art Fund,(212) 980-4575,http://www.publicartfund.org/,1 E. 53d St.,,New York,10022,-73.97518754,40.76037548
Puerto Rican Work Shop Inc,(212) 534-7534,http://www.nyc.com/arts__attractions/puerto_rican_work_shop_inc.1733/whats_nearby.aspx,121 E 106th St,,New York,10029,-73.94672759,40.79269985
Pushman Gallery Inc,(212) 582-0130,http://local.botw.org/New_York/New_York/Pushman_Gallery_Inc/10887507.html,154 W 57th St,,New York,10019,-73.97991308,40.76499909
Pytlak Art Studio,(718) 599-1265,http://www.anitapytlak.net/uk/index.html,573 Metropolitan Ave,,Brooklyn,11211,-73.94988527,40.71427613
Queen Art Publishers Inc,(212) 274-0237,http://www.lights.ca/publisher/db/9/3739.html,481 Washington St,,New York,10013,-74.00979549,40.72549195
Questroyal Fine Art,(212) 744-3586,http://www.questroyalfineart.com/,903 Park Ave,Apt 3A,New York,10021,-73.96001774,40.7757238
Rabenou Yris Ancient Arts,(212) 486-0661,http://www.antiquecollectiblestore.com/detail/48742/rabenou-yris-ancient-arts.html,249 E 61st St,,New York,10021,-73.9638362,40.76222398
Radio House Gallery,(212) 620-7630,http://gallerydriver.com/?method=Gallery.GalleryDetail&GalleryID=489D6139-3048-28EB-92ED919F6F1756B9,601 W 26th St,,New York,10001,-74.00698523,40.75178267
Rafael Gallery,(212) 744-8666,http://www.getfave.com/locations/888896-rafael-gallery,241 E 59th St,,New York,10022,-73.96484847,40.76106891
Rainbow Fine Art Inc,(212) 585-2587,http://local.botw.org/New_York/New_York/Rainbow_Fine_Art_Inc/11030300.html,15 E 82nd St,,New York,10028,-73.96108478,40.77866481
Ralph Chait Galleries Inc,(212) 397-2818,http://www.rmchait.com/,724 5th Ave,,New York,10019,-73.97472467,40.76269799
Randel Gallery Inc,(212) 861-6650,http://www.antiquesandfineart.com/dealers/about.cfm?id=427&ap=1,49 East 78th Street,1B,New York,10021,-73.96194182,40.77557044
Randolph & Tate Assocs,(212) 595-6302,http://directory.northjersey.com/randolph+tate+assocs.9.7658139p.home.html,234 5th Ave,,New York,10001,-73.9880468,40.74435684
Raphael Fodde Editions,(718) 624-6048,http://www.yelp.com/biz/raphael-fodde-editions-brooklyn,70 WASHINGTON ST,,Brooklyn,11201,-73.98997736,40.7020874
Rare art Gallery,(212) 268-1520,http://www.rare-gallery.com/,521 W 26th St Bsmt,,New York,10001,-74.00368999,40.75021573
Raydon Gallery,(212) 288-3555,http://www.rateitall.com/i-410005-raydon-gallery.aspx,1091 Madison Ave,,New York,10001,-73.96032668,40.77833721
Red Dot,(212) 675-0448,http://www.rateitall.com/i-410007-red-dot.aspx,140 W 22nd St,,New York,10011,-73.9950592,40.74274458
Reece Galleries Inc The,(212) 333-5830,http://www.reecegalleries.com/,24 W 57th St,,New York,10019,-73.97570996,40.76335607
Reeves Contemporary Inc,(212) 714-0044,http://www.cynthia-reeves.com/,535 W 24th St,,New York,10011,-74.00518821,40.74928258
Regina's Art Center,(718) 837-5807,http://www.reginasartcenter.com/contact.html,1921 Benson Ave,,Brooklyn,11214,-74.00172859,40.60337998
Rehs Galleries Inc,(212) 355-5710,http://www.rehs.com/,5 E 57th St,Fl 8,New York,10022,-73.97311044,40.762974
Reinhold Brown Gallery,(212) 734-7999,http://gallerydriver.com/?method=Gallery.GalleryDetail&GalleryID=489D6945-3048-28EB-92C3310EAAC2B0DD,1100 Madison Ave,Ph,New York,10028,-73.96068894,40.77864024
Renaissance Gallery,(212) 234-0974,http://www.livevillage.com/newyork/art/renaissance-gallery.html,300 W 147th St,,New York,10039,-73.94134747,40.82412358
Resnick Ira Inc,(212) 223-1009,http://www.nyc.com/search/find.aspx?secid=2&name=Resnick%20Ira%20Inc,133 E 58th St,Ste 1001,New York,10022,-73.96881061,40.76189453
Ricco Maresca Gallery,(212) 627-4819,http://www.riccomaresca.com,529 W 20th St,,New York,10011,-74.00684653,40.74661225
Richard Gray Gallery,(212) 472-8787,http://www.richardgraygallery.com/default.asp,1018 Madison Ave,,New York,10021,-73.96268744,40.77603512
Richard Solomon,(212) 223-9545,http://www.richardsolomon.com/,305 E 50th St,,New York,10022,-73.96796822,40.75490203
Richard York Gallery,(212) 772-9155,http://gallerydriver.com/?method=Gallery.GalleryDetail&GalleryID=489D6E92-3048-28EB-924791189BBB08A3,21 E. 65th St.,2nd. Fl.,New York,10065,-73.96884242,40.76764185
Rienzo Gallery,(212) 288-2226,http://www.artnet.com/Galleries/About.asp?G=&gid=166017&which=&rta=http://www.artnet.com,20 E 69th St,,New York,10021,-73.96715177,40.7698308
Ritter-Antik Inc,(212) 673-2213,http://www.ritterantik.com/index.php,35 E 10th St,,New York,10003,-73.99270194,40.73250427
Rivington Bar & Art Gallery,(212) 253-7703,http://www.nyc.com/arts__attractions/rivington_bar__art_gallery.1676/whats_nearby.aspx,174 Rivington St,,New York,10002,-73.98443866,40.71908748
Robert Lee Morris Inc,(212) 431-9405,http://www.robertleemorris.com/contactus.php,400 W Broadway,,New York,10012,-74.00236651,40.72440709
Robert Mann Gallery,(212) 989-7600,http://www.robertmann.com/,210 11th Ave,,New York,10001,-74.00591124,40.74974338
Robert Miller Gallery Inc,(212) 366-4774,http://www.robertmillergallery.com/index2.html,526 W 26th St,,New York,10001,-74.00423399,40.74998086
Robert Steele Gallery,(212) 243-0165,http://www.robertsteelegallery.com/,511 W 25th St,,New York,10001,-74.00398548,40.74942346
Robertson African Arts,(212) 206-0912,http://wap.outalot.com/listings/314463-Robertson-African-Arts,36 W 22nd St,Apt 4,New York,10010,-73.99212377,40.74150835
Rogallerycom,(212) 732-6887,http://www.auction-directory.info/auction/rogallerycom-300-east-74th-street-new-york-ny-212-732-6887/1283,300 East 74th Street,,New York,10021,-73.95726809,40.7697075
Ronald Feldman Fine Arts,(212) 226-3232,http://www.feldmangallery.com/pages/home_frame.html,31 Mercer St,,New York,10013,-74.00185591,40.72116039
Roosevelt Island Visual Arts Assoc,(212) 308-6630,http://rivaa.com/,527 Main St,,New York,10044,-73.9564351,40.75359867
Rosen Andrea Gallery Inc,(212) 627-6000,http://www.andrearosengallery.com/,525 W 24th St,,New York,10011,-74.00493762,40.74904372
Rosenberg & Kaufman Fine Art,(212) 431-4838,http://www.robertkuszek.com/,115 Wooster St,,New York,10012,-74.00070941,40.72502497
Rosenberg Paul & Co,(212) 472-1134,http://local.botw.org/New_York/New_York/Rosenberg_Paul_and_Co/11505286.html,20 E 79th St,,New York,10021,-73.96251599,40.77623796
Ross Luise Gallery,(212) 343-2161,http://www.luiserossgallery.com/,511 West 25 Street,,New York,10001,-74.00391752,40.74945792
Roth,(212) 717-9067,http://www.andrewroth.com/,160A E 70th St,,New York,10021,-73.96253716,40.76883963
Rotunda Gallery,(718) 875-4047,http://www.nyc-arts.org/organizations/1668/rotunda-gallery,33 Clinton St,,Brooklyn,11201,-73.99146799,40.69515734
Royal Fine Art,(212) 452-4297,http://m.nyc.com/arts__attractions/royal_fine_art.361/map_location.aspx,1158 Lexington Ave,,New York,10021,-73.95868741,40.77550889
Royal-Athena Galleries,(212) 355-2033,http://www.royalathena.com/,153 E 57th St,Ph,New York,10022,-73.96804937,40.76078611
Rudolph De Paola Art Gallery,(718) 238-6026,http://www.merchantcircle.com/business/Rudolph.de.Paola.Art.Gallery.718-238-6026,6 Parrott Pl,,Brooklyn,11228,-74.02172407,40.6179935
Ruesch Jeffrey Fine Arts,(212) 925-1137,http://www.rateitall.com/i-410032-ruesch-jeffrey-fine-arts.aspx,134 Spring St,Fl 2,New York,10012,-74.00107131,40.72382475
Russeck Gallery,(212) 475-9939,http://local.botw.org/New_York/New_York/Russeck_Gallery/11582297.html,478 W Broadway,,New York,10012,-74.00056532,40.72679316
Russian World,(212) 399-6500,http://www.nyc.com/arts__attractions/russian_world.1710/map_location.aspx,18 W 55th St,,New York,10019,-73.97604749,40.76192574
S & A Art Gallery Inc,(212) 794-5251,http://www.masterseek.com/id/48817904/S-and-A-Art-Gallery.htm,1248 Lexington Ave,,New York,10028,-73.95658935,40.77844643
S 2 Editions Ltd,(212) 206-7345,http://www.nyc.com/arts__attractions/s_2_editions_ltd.958/editorial_review.aspx,155 Ave of the Americas,,New York,10013,-74.00479226,40.72529481
S E Art & Design Inc,(212) 980-1914,http://www.seartanddesign.com/contactus.html,232 E 59th St,,New York,10022,-73.96523801,40.76074545
Sabarsky Serge Gallery,(212) 628-6281,http://local.botw.org/New_York/New_York/Sabarsky_Serge_Gallery/11637783.html,58 E 79th St,,New York,10021,-73.96160397,40.77589273
Sabbatique Ltd,(212) 213-9344,http://www.sabbatiqueltd.com/contact.htm,10 Waterside Plz,,New York,10010,-73.97398004,40.73684452
Sabrina Enterprise.Com Artworks Sales and Rprdctns,(718) 335-5088,http://www.nyc.com/arts__attractions/sabrina_enterprisecom_artworks_sales_and_rprdctns.1874/editorial_review.aspx,10022 32nd Ave,,East Elmhurst,11369,-73.86790725,40.75905864
Sacks Fine Art,(212) 333-7755,http://sacksfineart.com/,229 East 60th Street,,New York,10022,-73.96475381,40.76182789
Safani Gallery Inc,(212) 570-6360,http://local.botw.org/New_York/New_York/Safani_Gallery_Inc/56446980.html,980 Madison Ave,,New York,10021,-73.96369841,40.77483294
Salz Trager Janet,(212) 744-6080,http://metroproper.com/business/profile/view/&id=59220,700 Park Ave,,New York,10021,-73.96550966,40.76954041
Sam's Souk,(212) 535-7210,http://www.manta.com/coms2/dnbcompany_8m39fn,979 Lexington Ave,,New York,10021,-73.96253151,40.76945601
Sanada Ikkanart Intl,(212) 734-3055,http://local.botw.org/New_York/New_York/Sanada_Ikkanart_Intl/154034137.html,30 E 85th St,,New York,10028,-73.95977784,40.78007652
Sands & Company Inc Fine Art At Madison Av,(212) 988-3900,http://www.nyc.com/arts__attractions/sands__company_inc_fine_art_at_madison_av.848/editorial_review.aspx,30 E 76th St,,New York,10021,-73.96342194,40.7741378
Sara Meltzer On View,(212) 343-8256,http://www.sarameltzergallery.com/artist.php?artist=tallichet&p=cv,588 Broadway,#612,New York,10012,-73.99709363,40.72470086
Sarafina Inc,(718) 522-1083,http://m.nyc.com/arts__attractions/sarafina_inc.739/whats_nearby.aspx?sec=att,411 Myrtle Ave,,Brooklyn,11205,-73.96937268,40.69329479
Sarajo Inc,(212) 966-6156,http://www.yelp.com/biz/sarajo-inc-new-york,130 Greene St,,New York,10012,-73.99880177,40.72527107
Sarina Tang Fine Art,(212) 242-9001,http://web2.userinstinct.com/30817016-sarina-tang-fine-art.htm,535 W 23rd St,,New York,10011,-74.00525478,40.74841076
Savacou Galleries,(212) 473-6904,http://www.artchain.com/cgi-bin/showorganization.cgi?org=150,240 E 13th St,,New York,10003,-73.98626836,40.73178218
Sayn-Wittgenstein,(212) 288-1493,http://www.sw-fineart.com/,155 E 72nd St,,New York,10021,-73.96141027,40.77036691
Schellmann Editions,(212) 219-1821,http://www.editionschellmann.com/,210 11th Ave,,New York,10001,-74.00585462,40.74982694
Schickler Howard Fine Art,(212) 431-6363,http://www.schicklerart.com/,100 Water St,,Brooklyn,11201,-73.98992302,40.70287472
Schillay Fine Art,(212) 861-8353,http://www.schillay.com/contact.html,520 E 72nd St,,New York,10021,-73.95267538,40.76613926
Schiller & Bodo Fine Art,(212) 772-8627,http://www.schillerandbodo.com/,120 E 65th St,,New York,10021,-73.96628743,40.76612067
Schlesinger Gallery,(212) 734-3600,http://newyork.maplist.org/viewthread.php?tid=442872,24 E 73rd St,,New York,10021,-73.96547437,40.77245892
Scholten Japanese Art,(212) 585-0474,http://www.artinfo.com/galleryguide/19648/6194/scholten-japanese-art-new-york/inventory/,63 E 66th St,,New York,10021,-73.96707156,40.76771754
Schonfeld R D & Co Inc,(212) 755-7005,http://www.nyc.com/arts__attractions/schonfeld_r_d__co_inc.288/whats_nearby.aspx,349 E 49th St,Apt 6B,New York,10017,-73.96698518,40.75363538
Sculpture Center,(718) 361-1750,http://www.sculpture-center.org/,44-19 Purves St,,Long Island City,11101,-73.94081427,40.74692133
Sean Kelly Inc,(212) 239-1181,http://www.skny.com/,526 W 29th St,,New York,10001,-74.00306879,40.75188382
Sears-Peyton Gallery,(212) 966-7469,http://www.searspeyton.com/html/home.asp,210 11th Ave,,New York,10001,-74.00579913,40.74991739
Seaside Summer Concert Series Inc,(718) 469-1912,http://www.nyc.com/arts__attractions/seaside_summer_concert_series_inc.1588/editorial_review.aspx,572 Flatbush Ave,,Brooklyn,11225,-73.96089004,40.65968268
Second Ave Art Expo,(212) 223-9095,http://www.merchantcircle.com/business/Second.Ave.Art.Expo.212-223-9095,980 2nd Ave,,New York,10022,-73.96741088,40.75583142
Seibold Eleanor,(212) 988-4731,http://www.nyc.com/arts__attractions/seibold_eleanor.1833/map_location.aspx,1601 York Ave,,New York,10028,-73.94807967,40.77506696
Senior & Shopmaker,(212) 213-6767,http://www.seniorandshopmaker.com/,21 E 26th St,,New York,10010,-73.98681735,40.7432733
Sepia International Inc the,(212) 645-9444,http://www.sepia.org/,148 W 24th St,Fl 11,New York,10011,-73.9945027,40.74425013
Serbin Inna,(212) 249-5252,http://www.nyc.com/arts__attractions/serbin_inna.1675/whats_nearby.aspx,342 E 77th St,,New York,10021,-73.95440567,40.77111187
Serger Helen La Boetie,(212) 535-4865,http://boundlessgallery.com/directory/gallery/618/Helen-Serger-LA-Boetie,9 E 82ND ST,STE 3A,New York,10028,-73.96122592,40.77875555
Seven Colors,(212) 681-9091,http://www.livevillage.com/newyork/art/seven-colors.html,555 5th Ave,,New York,10017,-73.97882344,40.75567804
Shades of Art,(718) 834-0084,http://www.merchantcircle.com/business/Shades.of.Art.718-834-0084,47 Flatbush Ave,,Brooklyn,11217,-73.97949384,40.68753305
Shainman Jack Gallery,(212) 645-1701,http://www.jackshainman.com/,513 W 20th St,,New York,10011,-74.0062634,40.74636555
Shapolsky Anita Gallery,(212) 452-1094,http://www.anitashapolskygallery.com/,152 E 65th St,,New York,10021,-73.96455977,40.76539575
Shawn Dulaney Studio,(212) 255-7986,http://www.shawndulaney.com/,34 W 22nd St,,New York,10010,-73.99205567,40.74147187
Shepherd & Derom Galleries,(212) 861-4050,http://www.shepherdgallery.com/feature.html,58 E 79th St,,New York,10021,-73.96166653,40.77579399
Shickman H Gallery,(212) 249-3800,http://whrrl.com/place/1220422/shickman-h-gallery-new-york,220 E 72nd St,,New York,10021,-73.95972631,40.76901768
Shulman B & M Inc,(718) 646-6022,http://brooklyn.citysearch.com/profile/601893311/brooklyn_ny/b_m_shulman_inc.html,2623 Avenue U,,Brooklyn,11229,-73.94506548,40.60027352
Sigrid Freundorfer Fine Art,(212) 517-9700,http://oneartworld.com/Sigrid+Freundorfer+Fine+Art.html,790 Madison Ave,,New York,10021,-73.96809593,40.76848323
Silverstein Gallery Inc,(212) 929-4300,http://gallerydriver.com/?method=Gallery.GalleryDetail&GalleryID=489CC5FF-3048-28EB-9213D9BD1A052B8E,520 West 21st St,,New York,10011,-74.00610392,40.7465867
Simply Marvelous Art,(718) 291-9862,http://www.simplymarvelousart.com/,159-15 Jamaica Ave,,Jamaica,11432,-73.79975655,40.70412221
Skoto Gallery,(212) 352-8058,http://www.skotogallery.com/homepage,529 W 20th St,,New York,10011,-74.0068503,40.74667658
Sloan McGill Collection,(718) 469-1930,http://www.nyc.com/arts__attractions/sloan_mcgill_collection.1894/editorial_review.aspx,150 Midwood St,,Brooklyn,11225,-73.95565084,40.65961513
Smack Mellon Studios,(718) 422-0989,http://www.smackmellon.org/,92 Plymouth St,,Brooklyn,11201,-73.98985972,40.70375074
Smith Gallery,(212) 744-6171,http://www.nyc.com/arts__attractions/smith_gallery.185/editorial_review.aspx,447 W 24th St,,New York,10011,-74.00265775,40.74814601
Society For Renewal of Christian Art,(212) 288-8186,http://www.nyc.com/arts__attractions/society_for_renewal_of_christian_art.340/editorial_review.aspx,217 E 66th St,,New York,10021,-73.96219073,40.76564703
Soho 20,(212) 367-8994,http://www.soho20gallery.com/New/exhibitions.html,511 W 25th St,,New York,10001,-74.00383257,40.74948118
Soho Photo Gallery,(212) 226-8571,http://www.sohophoto.com/,15 White St,,New York,10013,-74.00555633,40.71896419
Soldwedel Kipp,(212) 759-1175,http://www.ziphip.com/soldwedel+kipp.9.7196845p.home.html,470 Park Ave,,New York,10022,-73.970742,40.76224192
Soloman & Co Fine Art Gallerie,(212) 737-8200,http://gallerydriver.com/?method=Gallery.GalleryDetail&GalleryID=489DA839-3048-28EB-923E97BA2BE7589F,959 Madison Ave,,New York,10021,-73.96352461,40.77383485
Sonnabend Gallery Inc,(212) 627-1018,http://www.artnet.com/sonnabend.html,532 W 22nd St,,New York,10011,-74.00640433,40.74753287
Soufer Gallery,(212) 628-3225,http://www.soufergallery.com/,1015 Madison Ave,,New York,10075,-73.96219093,40.77578491
Spencer Brownstone Gallery,(212) 334-3455,http://www.spencerbrownstonegallery.com/000mailing.html,39 Wooster St.,,New York,10013,-74.00285195,40.72259291
Sperone Westwater,(212) 253-0648,http://www.speronewestwater.com/cgi-bin/iowa/index.html,121 Greene St,,New York,10012,-73.9992624,40.72544341
Spring,(718) 222-1054,http://www.spring3d.net/,126 Front St,,Brooklyn,11201,-73.98739581,40.70224828
Sragow Ellen Ltd,(212) 219-1793,http://www.sragowgallery.com/,153 West 27th Street,Room #505,New York,10001,-73.9930249,40.74652176
St Etienne Galerie,(212) 245-6734,http://www.gseart.com/,24 W 57th St,,New York,10019,-73.9756284,40.76331815
Staley-Wise Gallery,(212) 966-6223,http://www.staleywise.com,560 Broadway,,New York,10012,-73.99767009,40.72388325
Start,(212) 431-2414,http://www.livevillage.com/newyork/art/start.html,50 Greene St,,New York,10013,-74.00158103,40.72198834
State of Art,(718) 349-7250,http://www.merchantcircle.com/blogs/State.of.Art.718-349-7250,113 Franklin St,,Brooklyn,11222,-73.95791517,40.73022122
Steigrad Lawrence Fine Arts,(212) 517-3643,http://www.steigrad.com/,23 E 69th St,# 4F,New York,10021,-73.96622596,40.76982013
Stein Gertrude Gallery,(212) 535-0600,http://www.gallerygertrudestein.com/contact.htm,200 West 57th Street,,New York,10019,-73.98049754,40.76544489
Stephen Downes Gallery,(212) 274-9194,http://www.nyc.com/arts__attractions/stephen_downes_gallery.263/editorial_review.aspx,377 Broome St,,New York,10013,-73.99647297,40.72012487
Stewart Waltzer Co,(212) 675-4949,http://www.manta.com/coms2/dnbcompany_jr0lm4,200 W Houston St,Apt 3D,New York,10014,-74.0039409,40.72871353
Storefront For Art and Architecture,(212) 431-5795,http://www.storefrontnews.org/,97 Kenmare St,,New York,10012,-73.9970683,40.72147743
"Stricoff Fine Art, Ltd.",(212) 219-3977,http://www.stricoff.com/,564 W 25th St,,New York,10001,-74.00571078,40.74989328
Studio Gallery,(212) 579-4654,http://www.merchantcircle.com/business/Studio.Gallery.212-579-4654,205 W 88th St,,New York,10024,-73.97428548,40.78933483
Studio Tamar,(212) 529-4247,http://www.upspring.com/studio-tamar-new-york-ny.html,152 E 22nd St,,New York,10010,-73.98429766,40.73821552
Stux Gallery,(212) 352-1600,http://www.stuxgallery.com,530 W 25th St,,New York,10001,-74.0048092,40.74932239
Sugarhill Arts Center,(212) 491-5890,http://www.theartproject.net/pages/126yp_awaken.htm,3658 Broadway,,New York,10031,-73.94709267,40.8302204
Suite 106,(212) 274-9166,http://www.art-search.us/listing/22923/suite-106-gallery,112 Mercer St,,New York,10012,-73.99892431,40.72359612
Sun Yi Jun,(212) 625-1910,http://www.nyc.com/arts__attractions/sun_yi_jun.821/editorial_review.aspx,83 Bowery,,New York,10002,-73.99534581,40.71676282
Susan Aberbach Fine Art,(212) 207-4600,http://www.saberbach.com/site.html,41 E 57th St,,New York,10022,-73.97168389,40.76228905
Susan Megson Gallery,(212) 254-8090,http://web2.userinstinct.com/31111920-susan-megson-gallery.htm,456 W Broadway,,New York,10012,-74.00081321,40.7262492
Susan Rolfe Associates Fine Arts Ltd,(212) 688-7184,http://www.merchantcircle.com/business/Susan.Rolfe.Associates.Fine.Arts.Limited.212-688-7184,654 Madison Ave,,New York,10021,-73.97111034,40.7644843
Susan Sheehan Gallery,(212) 489-3331,http://www.susansheehangallery.com/,535 West 22nd Street,3rd Floor,New York,10011,-74.00605482,40.74791171
Sutherland M,(212) 249-0428,http://www.artnet.com/gallery/155971/m-sutherland-fine-arts-ltd.html,620 Park Ave,,New York,10021,-73.96722779,40.76696025
Swiss Institute,(212) 925-2035,http://www.swissinstitute.net/,495 Broadway,3rd Fl,New York,10012,-74.00006289,40.72224748
Taglialatella Dominic J,(212) 367-0881,http://gallerydriver.com/?method=Gallery.GalleryDetail&GalleryID=489CDBF0-3048-28EB-923E29A3CAFD93E0,511 West 25th Street,2nd Floor,New York,10001,-74.00394584,40.7495251
Takako Tsuji Gallery,(212) 231-1778,http://trustedplaces.com/review/us/ny/new-york/cultural/1415l81/takako-tsuji-gallery,41 E 57th St,,New York,10022,-73.97173794,40.76221205
Talwar Gallery,(212) 673-3096,http://www.talwargallery.com/,108 E 16th St,Fl 3,New York,10003,-73.98882749,40.73545815
Tambaran Gallery,(212) 570-0655,http://www.tambaran.com/,5 E 82nd St,,New York,10028,-73.96139899,40.77879669
Tang Sarina,(212) 517-7401,http://www.merchantcircle.com/business/Tang.Sarina.212-517-7401,3 E 76th St,,New York,10021,-73.96443414,40.77499081
Tanya Bonakdar Galery,(646) 638-9471,http://www.livevillage.com/newyork/art/tanya-bonakdar-galery.html,521 W 21st St,,New York,10011,-74.00619628,40.74717188
Tate,(212) 242-9888,http://www.yelp.com/biz/tate-new-york,413 W 14th St,Ste 3,New York,10014,-74.00618826,40.74160877
Tatistcheff Gallery Inc,(212) 664-0907,http://www.artinfo.com/galleryguide/13109/1619/tatistcheff-gallery-new-york/visit/,529 West 20th Street,6th Floor,New York,10011,-74.00694992,40.74659365
Team Gallery,(212) 279-9219,http://www.teamgal.com/,527 W. 26th St.,,New York,10001,-74.0039373,40.75021954
Teller Susan Gallery,(212) 941-7335,http://www.susantellergallery.com/,568 Broadway,,New York,10012,-73.99746436,40.72429066
Tenri Cultural Institute,(212) 645-2800,http://www.tenri.org/,43A W. 13th St.,1st Fl.,New York,10011,-73.99609362,40.73640267
Thaw E V & Co,(212) 535-6333,http://www.artinfo.com/galleryguide/12003/489/ev-thaw--co-inc/visit/,726 Park Ave,# 730,New York,10021,-73.96487148,40.77042623
The Affordable Art Fair Llc,(212) 255-2003,http://www.nyc.com/arts__attractions/the_affordable_art_fair_llc.1679/editorial_review.aspx,216 W 18th St,Ph,New York,10011,-73.99907019,40.74128145
The Axa Gallery,(212) 554-4818,http://axagallery.com/index.html,787 7th Ave,,New York,10019,-73.9817828,40.76169418
The Bohen Foundation,(212) 414-4575,http://ny.citysquares.com/manhattan/meatpacking-district/arts-entertainment/artists-art-dealers/the-bohen-foundation,415 W 13th St,,New York,10014,-74.00650281,40.74080796
The Chinese Art Gallery,(212) 759-1153,http://www.411.info/business/New-York/New-York/The-Chinese-Art-Gallery-Ltd/8957246-13714534.html,1050 2nd Ave,,New York,10022,-73.96565695,40.75795522
The Dollhaus Art Gallery,(718) 486-0330,http://www.dollhaus.org/press/NYPress.htm,37 Broadway,,Brooklyn,11211,-73.96728726,40.71090184
The Gallery 172,(718) 861-3571,http://www.elfwood.com,1620 E 172nd St,,Bronx,10472,-73.8749194,40.8315804
The Old Print Shop Inc,(212) 683-3950,http://www.oldprintshop.com/cgi-bin/gallery.pl?action=exhibits&exhibit_id=53,150 Lexington Ave,,New York,10016,-73.98210768,40.74374126
The Phatory Llc,(212) 777-7922,http://www.thephatory.com/,618 E 9th St,,New York,10009,-73.97947469,40.72572166
The Q Department,(212) 219-3304,http://www.qdepartment.com/commercial.php,28 Howard St,,New York,10013,-74.00036768,40.71966311
The Scene Gallery,(212) 674-0508,http://newyork.citysearch.com/profile/11583862/new_york_ny/the_scene_gallery.html,42 Rivington St,,New York,10002,-73.99097517,40.72106206
Thicket,(212) 343-2849,http://outside.in/tribeca-manhattan-ny/thicket,10 Leonard St,,New York,10013,-74.00824905,40.71858122
Think Art Gallery,(212) 695-2006,http://www.nyc.com/arts__attractions/think_art_gallery.1775/editorial_review.aspx,336 W 37th St,,New York,10018,-73.99403189,40.75466722
Thomas & Hirsch,(212) 625-2011,http://www.nyc.com/arts__attractions/thomas__hirsch.597/map_location.aspx,375 W Broadway,,New York,10012,-74.0022847,40.72343124
Thomas Erben Gallery,(212) 645-8701,http://www.thomaserben.com/index.php,526 W 26th St,,New York,10001,-74.00429401,40.74989644
Thomson C Art,(212) 249-0242,http://local.botw.org/New_York/New_York/Thompson_C_Art/141792657.html,19 E 75th St,,New York,10021,-73.9643099,40.77400673
Three East Third St Corp,(212) 533-7749,http://ny.citysquares.com/manhattan/east-village/arts-entertainment/artists-art-dealers/three-east-third-st-corp,3 E 3rd St,,New York,10003,-73.99127036,40.72631717
Throckmorton Fine Arts,(212) 223-1059,http://www.throckmorton-nyc.com/,145 E. 57th St.,3rd Fl.,New York,10022,-73.9684469,40.76094893
Tilton Jack Gallery,(212) 941-1775,http://www.artseensoho.com/Art/TILTON/tilton.html,47 Greene St,,New York,10013,-74.00200058,40.72225087
Time Is Always Now,(212) 343-2211,http://www.yelp.com/biz/time-is-always-now-peter-beard-carnets-africans-new-york,476 Broome St.,,New York,10013,-74.00165246,40.72303601
Tk Oriental Antiques,(212) 980-6416,http://newyork.maplist.org/viewthread.php?tid=412663,41 E 57th St,,New York,10022,-73.97182904,40.76234556
Tobey Fine Art,(212) 431-7878,http://www.artnet.com/gallery/140739/tobey-fine-arts.html,580 Broadway,,New York,10012,-73.99703668,40.72443535
Ton Ying & Co,(212) 751-0134,http://www.hatii.arts.gla.ac.uk/admn/php/carp/essay1.php?enum=1096638570,1050 2nd Ave,Rm 87,New York,10022,-73.96571788,40.75808113
Tonal Motion Inc,(212) 719-4393,http://tonalmotion.org/main.html,1026 Avenue of the Americas,,New York,10018,-73.98546139,40.75245457
Tonkonow Leslie,(212) 255-8450,http://www.villagevoice.com/locations/leslie-tonkonow-artworks-projects-145055/,535 W 22nd St,,New York,10011,-74.00615109,40.74795822
Tower Art Gallery,(212) 571-0100,http://www.nelso.com/us/place/50980/,7 Maiden Ln,,New York,10038,-74.00950849,40.70983828
Traditional Art Gallery Inc,(212) 593-0350,http://www.getfave.com/locations/844915-traditional-art-gallery-inc,1050 2nd Ave,,New York,10022,-73.96585513,40.75803479
Triangle Editions,(212) 355-3754,http://www.getfave.com/locations/915361-triangle-editions,111 E 62nd St,,New York,10021,-73.96777316,40.76471075
Tribes Gallery,(212) 674-8262,http://www.tribes.org/web/,285 E. Third St.,,New York,10009,-73.97988408,40.72155551
Triple Candie,(212) 865-0783,http://artcritical.com/fyfe/JFNoland.htm,461 W 126th St,,New York,10027,-73.95506322,40.81374658
Triton Collection the,(212) 594-9590,http://www.tritonjewelry.com/home.php,224 12th Ave,,New York,10001,-74.00704894,40.75257912
Troubetzkoy Paintings,(212) 473-4047,http://www.troubetzkoypaintings.com/,366 E 8th St,,New York,10009,-73.97777959,40.72422992
Tunick David,(212) 570-0090,http://www.ifpda.org/content/node/2617,19 East 66th Street,,New York,10065,-73.96849023,40.76833078
Turkana Gallery,(212) 732-0273,http://www.tribal-kilims.com/links.asp,125 Cedar St,,New York,10006,-74.01245255,40.70976778
Ubu Gallery,(212) 753-4444,http://ubugallery.com/phpwcms/index.php?current,416 EAST 59 STREET,,New York,10022,-73.9612439,40.75904778
Under Minerva,(718) 788-0170,http://blog.underminerva.com/,656 5th Ave,,Brooklyn,11215,-73.99264059,40.66242445
Up & Co,(212) 966-7847,http://www.verystyleguide.com/upandco/,257 Church St,,New York,10013,-74.00525334,40.71803596
Uptown Gallery the,(212) 722-3677,http://www.uptowngallerynyc.com/,1194 Madison Ave,,New York,10128,-73.95834181,40.78195083
Urban Architecture Gallery of Applied Arts Inc,(718) 349-3837,http://www.urbanarchitecture.us/,1205 Manhattan Ave,,Brooklyn,11222,-73.9556829,40.73872
"Ursus Books & Prints, Ltd.",(212) 744-1600,http://www.ursusbooks.com/,981 Madison Ave.,,New York,10021,-73.96314948,40.77455057
Valenzi Gallery & Framing,(718) 274-1419,"http://www.yellowbot.com/tags/frame/New%20York,%20NY%2011105/page1.html",2904 23rd St,,Astoria,11102,-73.92609137,40.76975797
Van De Weghe Fine Art,(212) 929-6633,http://www.re-title.com/exhibitions/archive_VANDEWEGHEFINEART3915.asp,521 W 23rd St,,New York,10011,-74.00485832,40.74829506
Vance Jordan Fine Art,(212) 570-9500,http://www.russianyellowpages.com/business/Vance_Jordan_Fine_Art,958 Madison Ave,,New York,10001,-73.96412402,40.77407623
Veranda Design,(212) 724-5156,http://66.111.11.24/arts__attractions/veranda_design.973/editorial_review.aspx,225 W 83rd St,,New York,10024,-73.97719259,40.78627113
Verona Arts Ltd,(212) 317-1010,http://www.merchantcircle.com/blogs/Verona.Arts.LTD.212-317-1010,603 5th Ave,,New York,10017,-73.97755224,40.7574937
Viart Corporation,(212) 752-3500,http://www.viartcorp.com/,120 E 56th St,,New York,10022,-73.970647,40.76043004
Vick Corporate Art Advisors,(212) 414-1976,http://vickartadvisors.com/,210 11th Ave,Rm 808,New York,10001,-74.00577307,40.74980455
Vieille Russie Inc Antiqs & Jwlry,(212) 752-1727,http://www.artantiquedealersleague.org/dealerdetails.asp?dealerID=5,781 5th Ave,,New York,10022,-73.97253002,40.76431012
Vietnam Art Design,(212) 431-8889,http://www.galleryvietnam.com/,345 Greenwich St,,New York,10013,-74.0101257,40.71840386
Viewpoint Gallery,(212) 242-5478,http://www.viewpointgallery.com/contact.php,41 Union Sq W,Ph,New York,10003,-73.99068945,40.73711799
Vincent Fremont Enterprises,(212) 414-1881,http://www.manta.com/coms2/dnbcompany_6xq3v8,1 Union Sq W,Ste 307,New York,10003,-73.99187771,40.73550087
Viridian Artists Inc,(212) 414-4040,http://www.viridianartists.com/new/index.cfm,530 W 25th St,,New York,10001,-74.00472764,40.74929138
Visage Studios,(212) 391-0131,http://ny.serviceslisted.com/1654518-VisageStudios.htm,12 West 37th Street,Rm 1211,New York,10018,-73.98424841,40.75055103
Visual Arts Gallery,(212) 598-0221,http://www.nyc.com/arts__attractions/visual_arts_gallery.235/whats_nearby.aspx,137 Wooster St,,New York,10012,-74.00014431,40.7259206
Volpe Organization,(212) 227-7913,http://www.shopinmanhattan.com/map.asp?mid=10584753&subCat=art+galleries,100 W End Ave,,New York,10023,-73.98809617,40.77482589
Wada Takashi Gallery,(212) 586-8979,http://www.city-data.com/businesses/884092230-takashi-wada-gallery-new-york-ny.html,350 W 50th St,,New York,10019,-73.98849961,40.76290655
Wade Maxx Art Gallery,(212) 579-6529,http://www.wademaxx.com/,191 Columbus Ave,,New York,10023,-73.98013755,40.7752092
Wally Findlay Galleries,(212) 421-5390,http://www.wallyfindlay.com/,124 E 57th St,,New York,10022,-73.96978732,40.76088973
Ward-Nasse Gallery,(212) 925-6951,http://www.wardnasse.org/,178 Prince St,,New York,10012,-74.00206949,40.72612435
Washburn Galleries,(212) 397-6780,http://www.washburngallery.com/,20 W 57th St,Lbby,New York,10019,-73.9754894,40.76329173
Washington Sq Outdoor Art Exhibit Inc,(212) 982-6255,http://www.washingtonsquareoutdoorartexhibit.org/,115 E 9th St,,New York,10003,-73.98955957,40.73055351
Webster David,(212) 367-8120,http://www.7mainstreet.com/business/unclaimed/webster-david-new-york-ny-10001/14671913,448 W 16th St,,New York,10011,-74.00604994,40.74255494
Weisbrod Chinese Art Ltd,(212) 319-1335,http://www.weisbrodltd.com/wsbhome.html,36 E 57th St,,New York,10022,-73.97195658,40.76183606
Wellesley the,(212) 288-2666,http://www.nyc.com/arts__attractions/wellesley_the.795/whats_nearby.aspx,200 E 72nd St,,New York,10021,-73.96043137,40.76937887
Wessel & O'Connor,(212) 242-8811,http://www.wesseloconnor.com/,242 W. 26th St.,,New York,10011,-73.99604272,40.74658362
Westbeth Gallery,(212) 989-4650,http://www.westbeth.org/,55 Bethune St,# 318-C,New York,10014,-74.00892207,40.73681609
Western Art Collectors Society,(718) 351-5268,http://www.americaonwheels.com/NewYork/WESTERN_ART_COLLECTORS_SOCIETY,1374 Richmond Rd,,Staten Island,10304,-74.09740511,40.5952498
Westwood Gallery,(212) 925-5700,http://www.westwoodgallery.com/,568 Broadway,,New York,10012,-73.99734434,40.72442296
Weybridge Fine Art,(212) 628-5445,http://ny.citysquares.com/manhattan/chelsea/arts-entertainment/artists-art-dealers/weybridge-fine-art-30-e-81-madison-ave,30 E 81st St,,New York,10028,-73.96097806,40.77737493
Whas Cultural Art Center Inc,(212) 569-2224,http://www.ziphip.com/whas+cultural+art+center+inc.9.7203168p.home.html,4450 Broadway,,New York,10040,-73.93249803,40.85624733
White Box,(212) 714-2347,http://www.whiteboxny.org/,525 W. 26th St.,,New York,10001,-74.00398261,40.75032291
White Columns Inc,(212) 924-4212,http://newyork.going.com/venue-3874;White_Columns_Inc,320 W 13th St,,New York,10014,-74.00412299,40.73907339
Whitfield James Fine Art,(212) 982-8050,http://www.facebook.com/pages/London-United-Kingdom/Whitfield-Fine-Art/184172920606,107 University Pl,,New York,10003,-73.99223345,40.73415172
Wickiser Walter Gallery Inc,(212) 941-1817,http://www.walterwickisergallery.com/,210 Eleventh Avenue,Suite 303,New York,10001,-74.00583422,40.74970893
Willow Woodstock Artistic Enterprises,(212) 677-6547,http://www.yelp.com/biz/willow-woodstock-artistic-enterprises-new-york,92 Saint Marks Pl,,New York,10009,-73.98503774,40.72731799
Wilmer Jenning Gallery,(212) 505-6771,http://www.merchantcircle.com/business/Wilmer.Jenning.Gallery.212-505-6771,215 E 2nd St,,New York,10009,-73.98297564,40.72158811
Winston Wachter Mayer Fine Art,(212) 255-2718,http://www.winstonwachter.com/,530 W 25th St,# 102,New York,10001,-74.00469934,40.74947055
Winter Works On Paper,(718) 599-0910,http://www.winterworksonpaper.com/about.htm,167 North 9th Street,,Brooklyn,11211,-73.95596899,40.71884386
Wolf Daniel Inc,(212) 772-7721,http://www.manta.com/coms2/dnbcompany_d947yw,52 E 78th St,,New York,10021,-73.96208739,40.77515497
Woodward Gallery,(212) 966-3411,http://www.woodwardgallery.net/,133 Eldridge Street,,New York,10002,-73.99181719,40.71901344
WORLD AFRICA,(212) 781-1872,http://manhattan.ny.povo.com/World_Africa,779 RIVERSIDE DR,APT A60,New York,10032,-73.94753651,40.83514504
World Art Center,(212) 791-4941,http://www.merchantcircle.com/business/World.Art.Center.212-791-4941,104 Nassau St,,New York,10038,-74.00717582,40.71059949
Yancey Richardson Gallery,(646) 230-9610,http://www.yanceyrichardson.com/,535 W 22nd St,,New York,10011,-74.00606502,40.74799009
Yasuda Fine Arts Inc,(212) 977-7966,http://www.localartdealers.com/New-York/Yasuda-Fine-Arts-Incorporated-25075.html,15 W 53rd St,,New York,10019,-73.9776035,40.76154759
Yorks Shona Gallery,(212) 431-7444,http://yorksshonagallery.com/,99 Spring St,,New York,10012,-73.99930952,40.72346095
Yorkville Art Gallery & Framing,(212) 423-0604,http://www.merchantcircle.com/business/Yorkville.Art.Gallery.And.Framing.212-423-0604,1687 3rd Ave,,New York,10128,-73.94977563,40.78412567
Yoshii Gallery,(212) 744-5550,http://www.yoshiigallery.com/,980 Madison Avenue,3rd Floor,New York,10075,-73.96353645,40.77472916
Yung Hee Kim,(212) 734-0009,http://www.linkedin.com/pub/yunghee-kim/11/847/188,945 5th Ave,,New York,10021,-73.9650305,40.77480195
Zabriskie Gallery,(212) 752-1223,http://www.zabriskiegallery.com/,41 W 57th St,Fl 4,New York,10019,-73.97608678,40.76417706
Zarre Andre Gallery,(212) 255-0202,http://www.andrezarrefineart.com/index.html,529 W 20th St,,New York,10011,-74.00694053,40.74665656
Zetterquist Galleries,(212) 751-0650,http://web.mac.com/zetterquist/Qingbai_Wares/Home.html,3 East 66th Street,#1B,New York,10065,-73.96909886,40.76855091
Zito Studio Gallery,(646) 602-2338,http://www.merchantcircle.com/business/Zito.Studio.Gallery.646-602-2338,122 Ludlow St,,New York,10002,-73.98835222,40.71959638
Zwirner & Wirth,(212) 517-8677,http://www.zwirnerandwirth.com/,32 E. 69th St.,,New York,10021,-73.96656358,40.76947535
Zwirner David Gallery,(212) 727-2070,http://www.davidzwirner.com/,525 W 19th St,,New York,10011,-74.00696818,40.74589496
Priska C. Juschka Fine Art Inc,(212) 244-4320,http://www.priskajuschkafineart.com/,547 W 27th St,,New York,10001,-74.00436441,40.7512663
1 2 3 Watts Gallery,(212) 219-1482,http://www.123watts.com/,123 Watts St,,New York,10013,-74.00902349,40.72385717
12 Below,(212) 777-6777,http://www.upspring.com/12-below-new-york-ny-map.html,853 Broadway,,New York,10003,-73.99106783,40.73460139
14 Sculptors Gallery,(212) 966-5790,http://www.14sculptors.com/,168 Mercer St,,New York,10012,-73.99752291,40.72525532
1405 Art Gallery,(212) 717-4025,http://artframenj.com/,1405 2nd Ave,,New York,10021,-73.95798347,40.76974722
2 Welancora Gallery,(718) 919-0344,http://www.welancora.com/,410 Jefferson Ave,,Brooklyn,11221,-73.94151974,40.6840779
280 Modern,(212) 941-5825,http://attractions.uptake.com/museums/new_york/ridgewood/280_modern_17617828.html,1875 Dekalb Ave,,Ridgewood,11385,-73.91448247,40.70924363
3 Costantino Fioratti Helen C,(212) 517-9176,http://www.lantiquaire.us/mirrors-in-renaissance-period.html,36 E 73rd St,,New York,10021,-73.96468514,40.77217101
303 Gallery,(212) 255-1121,http://www.303gallery.com/,547 W 21st Street,,New York,10011,-74.00709988,40.74748973
33rd St Galleria,(212) 273-9673,http://www.superpages.com/bp/New-York-NY/33rd-Street-Galleria-L2016404930.htm,401 7th Ave,,New York,10001,-73.99086173,40.74998474
33rd Street Galleria,(212) 760-1228,http://gallerydriver.com/?method=Gallery.GalleryDetail&GalleryID=489C0F17-3048-28EB-92D57971418D832F,131 W 33rd St,Lbby,New York,10001,-73.98967644,40.74995773
4 Chambers Fine Art,(212) 414-1169,http://www.chambersfineart.com/en/calendar/2009-2-bj.html,522 West 19th Street,,New York,10011,-74.00711819,40.74548098
5 Robin Rice Gallery,(212) 366-6660,http://www.robinricegallery.com/galleryinformation/index.html,325 W 118th St,,New York,10026,-73.95513651,40.8060391
531 Artspace,(718) 388-6087,http://newyork.citywaboo.com/business/2200841/531_Artspace-in-Brooklyn-NY_11222-4852.html,531 Graham Ave,,Brooklyn,11222,-73.94713438,40.72132182
73 St Farmers Market,(212) 879-3500,http://www.nyc.com/arts__attractions/73_st_farmers_market.1808/whats_nearby.aspx,1368 York Ave,,New York,10021,-73.95301546,40.76730472
A Clean Well Lighted Place Inc,(212) 255-3656,http://www.merchantcircle.com/business/A.Clean.Well.Lighted.Place.Inc.New.York.NY.1.212-255-3656,363 Bleecker St,,New York,10014,-74.00455563,40.73453611
A J ARTS LTD,(718) 763-5473,http://yp.blogflux.com/directory/us/new-york/brooklyn/a-j-arts-ltd-6208-mill-ln/,6208 MILL LN,,Brooklyn,11234,-73.91691325,40.61860965
A.I.R. Gallery,(212) 966-0799,http://www.artseensoho.com/Art/AIR/air.html,40 Wooster St,,New York,10013,-74.00247724,40.72220574
AAA-Abbey Mdsng Co Inc,(718) 253-8830,http://yp.blogflux.com/directory/us/new-york/brooklyn/aaaabbey-mdsng-co-inc/,618 Coney Island Ave,,Brooklyn,11218,-73.96993064,40.64223849
Abada Felix Inc,(212) 427-8731,http://www.nyc.com/arts__attractions/abada_felix_inc.468/whats_nearby.aspx,1556 3rd Ave,,New York,10128,-73.95369907,40.77982819
Aberbach Fine Art,(212) 988-1100,http://www.saberbach.com/site.html,41 E 57th Street,14th Floor Suite1401,New York,10022,-73.97156739,40.76234165
Aca Galleries,(212) 206-8080,http://www.acagalleries.com/,529 W 20th St,,New York,10011,-74.00671307,40.74666372
Ace Gallery,(212) 255-5599,http://www.acegallery.net,275 Hudson St,,New York,10013,-74.0080057,40.72518059
Acquavella Galleries Inc,(212) 734-6300,http://www.acquavellagalleries.com/,18 E 79th St,,New York,10021,-73.96264903,40.776242
Adam Baumgold Fine Art,(212) 861-7338,http://www.adambaumgoldgallery.com/,74 E. 79th St.,,New York,10021,-73.9610758,40.77566375
Adam Williams Fine Art Ltd,(212) 249-4987,http://www.adam-williams.com/DesktopDefault.aspx?tabid=20,24 East 80th Street,,New York,10075,-73.96206754,40.77696724
Adams Fund Art Buyers,(212) 873-2633,http://www.yellowspinny.com/adams+fund+art+buyers/bus-16396/,330 W 72nd St,Bsmt,New York,10023,-73.98593597,40.78013539
Adams George Gallery,(212) 644-5665,http://www.ikarma.com/biz/New+York/New+York/Adams+George+Gallery/%28212%29644-5665/,41 W 57th St,Lbby,New York,10019,-73.97614893,40.76409153
Adelson Galleries,(212) 439-6800,http://www.adelsongalleries.com/,219 E 82nd St,,New York,10028,-73.95485348,40.77602747
Adler & Conkright Fine Art Llc,(212) 772-7509,http://www.adlerconkrightarts.com/,24 E 71st St,,New York,10021,-73.96624092,40.77097524
African Arts Center Inc,(212) 244-6914,http://yp.blogflux.com/directory/us/new-york/new-york/african-arts-center-inc/,615 W 27th St,,New York,10001,-74.00566649,40.75191958
Africart Motherland Inc,(212) 368-6802,http://local.botw.org/New_York/New_York/Africart_Motherland_Inc/77934896.html,2478 Frederick Douglas Blvd,,New York,10027,-73.94739591,40.81484874
Agora Gallery,212-226-4151,http://www.agora-gallery.com/,530 W 25th St,,New York,10001,-74.00462798,40.74943954
Akira Ikeda Gallery,(212) 366-5449,http://www.akiraikedagallery.com/,17 Cornelia St,,New York,10014,-74.0019872,40.73159806
Alan Brasington Inc,(212) 366-9996,http://www.nyc.com/arts__attractions/alan_brasington_inc.187/editorial_review.aspx,23 8th Ave,,New York,10014,-74.00465112,40.73792128
Alaska on Madison,(212) 879-1782,http://www.alaskaonmadison.com/,1065 Madison Ave,,New York,10028,-73.96107281,40.77729595
Alexander and Bonin,(212) 367-7474,http://www.alexanderandbonin.com/,132 10th Ave,,New York,10011,-74.00599211,40.7446874
Alexander's Sculptural Svce,(212) 867-8866,http://www.nyc.com/arts__attractions/alexanders_sculptural_svce.1805/whats_nearby.aspx,117 E 39th St,,New York,10016,-73.97794942,40.74998353
Alexandre Gallery,(212) 755-2828,http://www.alexandregallery.com,41 E 57th St,,New York,10022,-73.97161806,40.76226849
Alliance of Queens Artists,(718) 520-9842,http://www.arts4u.org/,99-10 Metropolitan Ave.,,Forest Hills,11375,-73.85334629,40.71066978
Blum Peter-Blum Arts,(212) 343-0441,http://peterblumgallery.com/exhibitions,99 Wooster St,,New York,10012,-74.00107688,40.7245907
Alter Silver Gallery Corp,(212) 750-1928,http://www.ikarma.com/biz/New+York/New+York/Alter+Silver+Gallery+Corporation/%28212%29750-1928/,1050 2nd Ave,,New York,10022,-73.96574831,40.75820702
American European Fine Art Inc,(212) 517-4010,http://www.artincontext.org,115 E 89th St,,New York,10128,-73.95473278,40.78188518
American Fine Arts Co,(212) 941-0401,http://www.nileguide.com/destination/new-york/things-to-do/american-fine-arts-co/507977,530 W 22nd St,,New York,10011,-74.0061075,40.74749327
American Folk Art Museum - Eva and Morris Feld Gallery,(212) 595-9533,http://www.folkartmuseum.org/default.asp?id=509,2 Lincoln Square,,New York,10023,-73.98142236,40.77314532
Ameringer & Yohe Fine Arts,(212) 445-0051,http://www.ameringer-yohe.com/,525 West 22nd Street,,New York,10011,-74.00570231,40.7476769
Amos Eno Gallery,(718) 237-3001,http://www.amoseno.org/,111 Front Street,,Brooklyn,11201,-73.98909224,40.70283986
An American Space,(212) 426-2879,http://www.artinfo.com/galleryguide/11631/119/an-american-space-gallery/visit/,118 E 92nd St,,New York,10128,-73.95373195,40.78347688
Ancient Art of the New World Inc,(212) 737-3766,http://www.manta.com/coms2/dnbcompany_6k57c8,525 E 72nd St,,New York,10021,-73.95334299,40.76900976
Andover Gallery,(212) 473-1722,http://new_york.ny.ooberunder.com/7385653-andover.gallery,60 Rivington St,,New York,10002,-73.99023923,40.72083117
Andrew Edlin Gallery,(212) 206-9723,http://edlingallery.com/,134 Tenth Avenue,,New York,10011,-74.00584416,40.74469818
Andy Warhol Authentication Board Inc,(212) 727-1735,http://www.warholfoundation.org/legacy/authentication_procedure.html,525 W 20th St,,New York,10011,-74.00657819,40.74649764
Angel Orensanz Foundation,(212) 780-0175,http://www.orensanz.org/home.php,172 Norfolk St,,New York,10002,-73.98566579,40.72114259
Anita Friedman Fine Arts,(212) 472-1527,http://www.artnet.com/gallery/406/anita-friedman-fine-arts.html,980 Madison Ave,,New York,10021,-73.96348525,40.77479505
Annex the,(646) 638-3785,http://oneartworld.com/The+Annex.html,601 W 26th St,,New York,10001,-74.00726919,40.75175124
Annie Yau Gallery,(212) 580-2980,http://www.upnext.com/venue/new-york-recreation/annie-yau-gallery/11640.htm,173 W 88th St,,New York,10024,-73.97318629,40.78882752
Annina Nosei Gallery,(212) 741-8695,http://www.patrickgrant.net/genome_angallery.htm,528 W 22nd St,,New York,10011,-74.00603307,40.74745711
Anthony Grant Inc,(212) 755-0434,http://anthonygrantinc.com/Movie1_LANY.swf,37 W 57th St,,New York,10019,-73.97595129,40.76403092
Antik,(212) 343-0471,http://www.antik-nyc.net/,104 Franklin St,,New York,10013,-74.00559643,40.71861368
Antiquarium Fine Ancient Arts Gallery Ltd,(212) 734-9776,http://local.botw.org/New_York/New_York/Antiquarium_Fine_Ancient_Arts_Gallery_LTD/950985.html,948 Mad Ave,,New York,10001,-73.96448584,40.7737083
Anton Kern Gallery Inc,(212) 965-1706,http://antonkerngallery.com/artist.php?aid=16,532 W 20th St,,New York,10011,-74.00716258,40.74626699
Apex Art,(212) 431-5270,http://www.apexart.org/,291 Church St,,New York,10013,-74.00442891,40.71902942
April's Gallery,(212) 694-4538,http://find.mapmuse.com/details/art-galleries/9528834/aprils-gallery,501 W 145th St,,New York,10031,-73.94779848,40.82550711
Arader W Graham Gallery,(212) 628-3668,http://www.aradergalleries.com/,29 E 72nd St,,New York,10021,-73.96506781,40.77191981
Arash Gallery,(212) 759-4999,http://www.leftlinks.org/photography/main.php,1051 2nd Ave,,New York,10022,-73.96632495,40.75835498
Arcadia Fine Arts,(212) 965-1387,http://www.arcadiafinearts.com/home.html,51 Greene St,,New York,10013,-74.00191255,40.72233561
Archibald Arts,(212) 247-5087,http://www.archibaldarts.com/,602 10th Ave,,New York,10036,-73.99447222,40.76045676
Archive Consulting & Management Services,(212) 242-7767,http://www.yellowpages.com/info-1271752/Archive-Consulting-Management-Services,511 W 25th St,,New York,10001,-74.00406816,40.74945619
Ariel Meyerowitz Gallery,(917) 685-0089,http://www.arielmeyerowitz.com/,4720 Center Blvd.,Suite #2005,Long Island City,11109,-73.9572054,40.74562272
Ariston Development Group,(212) 924-1688,http://www.yellowbot.com/ariston-development-group-new-york-ny.html,78 Horatio St,,New York,10014,-74.00720672,40.73863045
Arleen G Becker Gallery Inc,(347) 525-7074,http://www.agbgallery.com/,200 Lexington Avenue,,New York,10022,-73.98078712,40.74557328
Art & Interiors Inc,(212) 754-9900,http://www.ziplocal.com/companies/102881788-Art-Interiors-Inc,979 3rd Ave,,New York,10022,-73.96625646,40.76095558
Art Advice Corporate Art Consultants,(212) 683-5611,http://www.artadvice-ny.com/,200 E 33rd St,Lbby,New York,10016,-73.97844633,40.74457207
Art Advisory Svces Inc,(212) 935-1272,http://www.artadvisoryservices.com/,530 Park Ave,,New York,10065,-73.96938236,40.76400119
Art Asap,(212) 258-3598,http://www.livevillage.com/newyork/art/art-asap-444-w-50th-st.html,444 W 50th St,,New York,10019,-73.99102179,40.76416275
Art Auction Advisory Svces,(212) 935 1272,http://www.artadvisoryservices.com/newsletter_08-sep.pdf,530 Park Avenue,,New York,10065,-73.96934511,40.76406092
Art Avenues Inc,(212) 874-6305,http://www.merchantcircle.com/business/Art.Avenues.Inc.New.York.NY.212-874-6305,240 W End Ave,,New York,10023,-73.98484183,40.77886825
Art Finds,(212) 724-4132,http://newyork.citysearch.com/profile/7169370/new_york_ny/art_finds.html,140 Riverside Dr,,New York,10024,-73.97973389,40.79017492
Blumka Gallery,(212) 734-3222,http://www.blumkagallery.com/,209 E 72nd St,,New York,10021,-73.95986032,40.76968728
Art Gallery & Custom Framing,(212) 473-6802,http://local.botw.org/New_York/New_York/799_Art_Gallery_and_Custom_Framing/112964310.html,799 Broadway,,New York,10003,-73.99179293,40.73243385
Art In General,(212) 219-0473,http://www.artingeneral.org/,79 Walker St,,New York,10013,-74.00187734,40.7180947
Art Loft Gallery,(212) 343-3005,http://m.nyc.com/arts__attractions/art_loft_gallery.1697/whats_nearby.aspx?sec=att,199 Lafayette St,,New York,10012,-73.99773834,40.72119226
Art Merchandising and Media Inc,(212) 759-0777,http://www.nyc.com/arts__attractions/art_merchandising_and_media_inc.912/map_location.aspx,26 E 64th St,Bsmt,New York,10021,-73.96958163,40.76668459
Art Metaphysics Education,(212) 736-0999,http://www.nyc.com/arts__attractions/art_metaphysics_education.881/editorial_review.aspx,323 W 39th St,,New York,10018,-73.99233661,40.75606799
Art Placement International,(212) 517-8740,http://m.nyc.com/arts__attractions/art_placement_international.449/map_location.aspx,957 Park Ave,Apt 5W,New York,10028,-73.95878267,40.77733033
Art Projects International Inc,(212) 343-2599,http://www.artprojects.com/,429 Greenwich St,Ph,New York,10013,-74.00940343,40.72229804
Art Resources Transfer Inc,(646) 486-2387,http://www.artresourcestransfer.org/,210 11th Ave,,New York,10001,-74.00595091,40.74998457
Art Student Showcase Inc,(212) 941-9471,http://www.yellowbot.com/art-student-showcase-incorporated-new-york-ny.html,248 Lafayette St,,New York,10012,-73.99720726,40.72310856
Art Vue,(212) 995-2008,http://www.artvue.com/,441 3rd St,,Brooklyn,11215,-73.98009836,40.67152952
Art Wise,(212) 989-3348,http://www.yellowspinny.com/art+wise/bus-41875/,133 W 25th St,,New York,10001,-73.993242,40.74498904
Arte Primitivo-Howard S Rose Gallery,(212) 570-6999,http://www.arteprimitivo.com/,3 E 65th St,,New York,10021,-73.9692938,40.76784299
Artefina International Inc,(718) 946-7948,http://www.nyc.com/arts__attractions/artefina_international_inc.1933/whats_nearby.aspx,246 Avenue U,,Brooklyn,11223,-73.97523366,40.59654737
Artemis Fine Arts Inc,(212) 288-8488,http://newyork.maplist.org/viewthread.php?tid=414560,23 E 73rd St,,New York,10021,-73.96520339,40.7727904
Artenova Ltd,(212) 581-8815,http://ny.citysquares.com/manhattan/clinton/arts-entertainment/artists-art-dealers/artenova-ltd,1780 Broadway,,New York,10019,-73.98126403,40.76647975
Arterres,(212) 343-1196,http://www.ibegin.com/directory/us/new-york/new-york/arterres-242-lafayette-st/,242 Lafayette St,,New York,10012,-73.99715508,40.72287262
Artique-the Art of Framing Inc,(212) 665-0549,http://www.artiqueonline.com/,2580 Broadway,,New York,10025,-73.97067461,40.79532709
Artist Prod Gallery,(212) 477-5699,http://www.nyc.com/arts__attractions/artist_prod_gallery.569/editorial_review.aspx,448 Broadway,,New York,10013,-74.0008502,40.72034082
Artists Space,(212) 226-3970,http://www.artistsspace.org/,38 Greene St,,New York,10013,-74.0018757,40.72169943
Artlife Gallery,(212) 255-9900,http://www.yellowspinny.com/artlife+gallery/bus-42410/,155 Ave of the Americas,,New York,10013,-74.00476655,40.725415
Art-Lore Inc,(718) 389-7988,http://www.merchantcircle.com/business/Art.Lore.Inc.718-389-7988,1155 Manhattan Ave,,Brooklyn,11222,-73.95578569,40.73806576
Artrepreneur,(212) 861-3156,http://www.theartrepreneur.com/,945 5th Ave,,New York,10021,-73.96511389,40.77469948
Arts Action Research,(718) 797-3661,http://www.artsaction.com/,423 Atlantic Ave,,Brooklyn,11217,-73.98338749,40.68664178
Arts at University Settlement/Speyer Hall,(212) 674-9120,http://www.universitysettlement.org/,185 Eldridge St.,,New York,10002,-73.9911973,40.72068015
Arts Du Monde,(212) 243-4477,http://www.artsdumonde.net/,40 W 25th St,,New York,10010,-73.99092836,40.74358397
Arts India,(212) 725-6092,http://www.merchantcircle.com/blogs/Arts.India.212-725-6092,206 5th Ave,,New York,10010,-73.98879876,40.74320506
Arts Proper International Inc,(212) 586-2810,http://www.nyc.com/arts__attractions/arts_proper_international_inc.1747/whats_nearby.aspx,24 W 57th St,,New York,10019,-73.97562042,40.76346975
Artscope Inc,(212) 838-0475,http://local.botw.org/New_York/New_York/Artscope_Inc/1103231.html,502 Park Ave,,New York,10022,-73.97009199,40.76325412
Ash Fine Art,(212) 734-0100,http://local.botw.org/New_York/New_York/Ash_Fine_Art/56447074.html,51 E 78th St,,New York,10021,-73.96183533,40.77553584
Asher Gallant Gallery,(212) 755-6770,http://www.nyc.com/arts__attractions/asher_gallant_gallery.1791/whats_nearby.aspx,62 E 55th St,,New York,10022,-73.97259126,40.7606796
Ashione Art Gallery,(212) 229-0899,http://www.yelp.com/biz/ashione-art-gallery-new-york,41 Perry St,,New York,10014,-74.00280458,40.7357165
Ashoka Crafts,(212) 579-9040,http://www.ashokacrafts.com/,202 W 77th St,,New York,10024,-73.97994523,40.78157133
Atelier A-E Ent,(212) 620-8103,http://www.atelierae.com/Contact.php,35 West 23rd Street,#3,New York,10010,-73.99087594,40.74237389
Atelier International Art Group Inc,(212) 431-0630,http://www.atelierart.com/,594 Broadway,,New York,10012,-73.99671188,40.72480609
Atlantic Gallery,(212) 219-3183,http://www.atlanticgallery.org/,135 West 29th St,suite 601,New York,10001,-73.99143108,40.74746646
Atmosphere Galleries Inc,(212) 343-9115,http://www.city-data.com/businesses/485663918-atmosphere-galleries-inc-new-york-ny.html,134 10th Ave,,New York,10011,-74.00600863,40.74476247
Audiello Fine Art Inc,(212) 675-9082,http://www.massimoaudiello.com/,526 W 26th St,,New York,10001,-74.00442202,40.75009455
Audrey C Art & Jewels,(212) 755-8979,http://wap.outalot.com/listings/278910-Audrey-C-Art-Jewels,167 E 61st St,,New York,10021,-73.9657204,40.76324997
Australian Aboriginal Fine Art Gallery Of New York,(917) 459-8874,http://www.aboriginalvisions.com/,1255 5th Ave,,New York,10029,-73.95015416,40.79501691
Av Art Gallery & Custom Framing Inc,(646) 486-3781,http://loqal.com/av+art+gallery+custom+framing+inc.9.54033737p.home.html,235 8th Ave,,New York,10011,-73.99938014,40.74461575
Available Art Llc,(917) 237-1668,http://www.nyc.com/arts__attractions/available_art_llc.905/map_location.aspx,204 Dean St,,Brooklyn,11217,-73.98529286,40.68530879
AVC Contemporary Arts Gallery,(212) 888-1122,http://friendseat.com/New-York-NY/Art-Museums-Galleries/AVC-Contemporary-Arts-Gallery,41 E. 57th St.,,New York,10022,-73.97167803,40.76218379
Avshalom Eitan Fine Arts,(212) 928-0760,http://fine-art.d-vers.com/,461 Fort Washington Ave,,New York,10033,-73.93866148,40.85075794
Axelle Fine Art,(718) 246-1800,http://www.axelle.com/,312 Atlantic Ave,,Brooklyn,11201,-73.98851198,40.68807778
Axelle Fine Arts Gallery Ltd,(212) 226-2262,http://www.axelle.com/index.html,148 Spring St,,New York,10012,-74.00149048,40.724118
Aztec Marketing Co,(212) 791-3317,http://www.merchantcircle.com/business/Aztec.Marketing.Co.New.York.NY.212-791-3317,90 John St,,New York,10038,-74.00648309,40.70789857
Back To Africa Imports,(212) 462-4848,http://www.back2africa.com/,6 W 26th St,,New York,10010,-73.98868277,40.74347151
Back To Roots Inc,(718) 649-3297,http://www.merchantcircle.com/business/Back.to.Roots.Inc.718-649-3297,440 Montauk Ave,,Brooklyn,11208,-73.87589511,40.66731504
Bag One Arts,(212) 595-5537,http://local.botw.org/New_York/New_York/Bag_One_Arts/1353721.html,110 W 79th St,,New York,10024,-73.97606172,40.78195248
Balalaika Arts & Crafts From Russia & Former Ussr,(212) 722-2594,http://local.botw.org/New_York/New_York/Balalaika_Arts_and_Crafts_From_Russia_and_Former_Ussr/34339337.html,313 E 95th St,,New York,10128,-73.94657506,40.78336845
BALMAR REALTY,(212) 702-0132,http://www.nyc.com/arts__attractions/balmar_realty.1777/map_location.aspx,155 E 55TH ST,,New York,10022,-73.96906466,40.75945091
Barbara Gladstone Gallery,(212) 206-9300,http://www.gladstonegallery.com/,515 W 24th St,,New York,10011,-74.00450715,40.7488804
Baron Boisante Editions,(212) 924-9940,http://www.baronboisante.com/,421 Hudson St,,New York,10014,-74.00725575,40.72988711
Barrington Gallery of London Ltd,(212) 302-9546,http://gallerydriver.com/?method=Gallery.GalleryDetail&GalleryID=489C5407-3048-28EB-92AE16503A57B774,572 5th Ave,,New York,10036,-73.97908152,40.75650243
Bayo Studios,1-800-939-2296,http://bayostudio.com/,210 Varet Street,,Brooklyn,11206,-73.93513086,40.70365264
Beadleston Gallery,(212) 581-7544,http://www.artincontext.org,724 5th Ave,,New York,10019,-73.97451739,40.76260577
Behr Thyssen Ltd,(212) 431-7459,http://www.behr-thyssen.com/,165 Hudson Street,,New York,10013,-74.00854193,40.7221639
Belanthi,(718) 624-9420,http://yp.blogflux.com/directory/us/new-york/brooklyn/belanthi-142-court-st/,142 Court St,,Brooklyn,11201,-73.9929238,40.68920182
Bellwether Gallery,(212) 929-5959,http://www.bellwethergallery.com/,134 10th Ave,,New York,10011,-74.00592594,40.74473102
Bench Dogs,(718) 486-7338,http://yp.blogflux.com/directory/us/new-york/brooklyn/bench-dogs-60-broadway/,60 Broadway,,Brooklyn,11211,-73.96628258,40.71032151
Benedetti Gallery Inc,(212) 226-2238,"http://www.wcities.com/en/record/298,64993/33/record.html",52 Prince St,,New York,10012,-73.99603744,40.72326204
Bernarducci Meisel Gallery,(212) 593-3757,http://www.bernarduccimeisel.com/index.php,37 W 57th St,,New York,10019,-73.97603744,40.764065
Bernstein David Primitive Art,(212) 794-0389,http://www.precolumbianart4sale.com/,737 Park Ave,,New York,10021,-73.96377491,40.77042906
Berry-Hill Galleries Inc,(212) 744-2300,http://www.berry-hill.com/home.html,11 E 70th St,,New York,10021,-73.96674309,40.77084483
Beverly Sacks Fine Art,(212) 583-9798,http://sacksfineart.com/,229 E 60th St,,New York,10022,-73.96480041,40.76175802
Beyond the Wall,(212) 622-7350,http://shop.beyondthewall.com/,529 5th Ave,Fl 7,New York,10017,-73.97967537,40.75443328
BICYCLE PAINTINGS.COM,(917) 771-8537,http://www.bicyclepaintings.com/,106 Ridge Street,,New York,10002,-73.98314703,40.71868692
Big Cat Gallery,(212) 982-6210,http://www.tonyfitzpatrick.com/big_cat_gallery.htm,154 Orchard Street,,New York,10002,-73.98866228,40.72079933
Bill Bace Gallery,(212) 219-0959,http://www.yellowbot.com/bill-bace-gallery-new-york-ny.html,39 Wooster St,,New York,10013,-74.00271112,40.72252117
Bill Hodges Gallery,(212) 333-2640,http://www.billhodgesgallery.com/,24 W 57th St,,New York,10019,-73.97553999,40.763437
Bitforms,(212) 366-6939,http://www.bitforms.com/index.php,529 W 20th St,,New York,10011,-74.0068296,40.74649787
Black & Black Art Gallery,(718) 658-9203,http://www.yelp.com/search?find_loc=Jamaica%2C+Queens%2C+NY&cflt=galleries,9215 Merrick Blvd,,Jamaica,11433,-73.79336576,40.7054239
Black & White Gallery Inc,(718) 599-8775,http://www.blackandwhiteartgallery.com/,483 Driggs Ave,,Brooklyn,11211,-73.95464223,40.71844238
Bleier Milton A Corp,(212) 533-1730,http://miltonbleier.com/,386 Park Ave,,New York,10016,-73.97287193,40.75960676
Blue Mountain Gallery Inc,(646) 486-4730,http://www.bluemountaingallery.org,530 W 25th St,,New York,10001,-74.00476842,40.74923625
Bodanna Inc,(212) 388-0078,http://www.merchantcircle.com/business/Bodanna.Inc.New.York.NY.212-388-0078,123 E 7th St,,New York,10009,-73.98411975,40.72652721
Bolivar Arellano Gallery,(212) 420-1263,http://www.bolivararellanogallery.com/,420 E 9th St,,New York,10009,-73.98391618,40.72761183
Bonakdar Jancou Gallery,(212) 414-4144,http://www.tanyabonakdargallery.com/,521 W 21st St,,New York,10011,-74.00611786,40.74700169
BORDEN JANET INC,(212) 431-0166,http://www.janetbordeninc.com/current/,560 BROADWAY,,New York,10012,-73.99768478,40.7240463
Bose Pacia Modern,(212) 989-7074,http://www.bosepacia.com/,508 W 26th St,,New York,10001,-74.00359349,40.74976022
Bound and Unbound,(212) 463-7348,http://oneartworld.com/Bound+_26+Unbound.html,601 W. 26th St,12th Fl.,New York,10001,-74.00687162,40.75159814
Bowery Gallery,(646) 230-6655,http://www.bowerygallery.org/,530 W 25th St,,New York,10001,-74.00484544,40.74926984
Brenda Taylor Gallery,(212) 463-7166,http://www.brendataylorgallery.com/,511 W. 25th Street,#401,New York,10001,-74.00382577,40.74935025
Bridgewater Gallery of Fine Arts Inc,(212) 674-3650,http://www.bwfinearts.com/,176 East 3rd Street,Suite 5G,New York,10009,-73.98412586,40.72292592
Bronx River Art Center,(718) 589-5819,http://www.bronxriverart.org/,1087 East Tremont Ave,,Bronx,10460,-73.87815507,40.84059709
Brooke Alexander Gallery,(212) 925-4338,http://www.baeditions.com/,59 Wooster St.,,New York,10012,-74.00226166,40.72320925
Brooklyn Arts Exchange,(718) 832-0018,http://bax.org/,421 Fifth Ave.,,Brooklyn,11215,-73.98543282,40.66976942
Brooklyn Fireproof,(718) 456-7570,http://www.brooklynfireproof.com/,119 Ingraham St,(at Porter Ave),Brooklyn,11237,-73.92918028,40.70788793
Broome Street Gallery the,(212) 226-6085,http://www.anny.org/2/gallery.html,498 Broome St,,New York,10013,-74.00262453,40.72338629
Bruce Palmer Galleries,(212) 595-6651,http://www.askart.com/AskART/lists/dealersummary.aspx?searchtype=dealer&company=43159,180 Riverside Drive,#6E,New York,10024,-73.97712674,40.79219979
Bruce Silverstein Gallery,(212) 627-3930,http://www.brucesilverstein.com/,504 W. 22nd St.,,New York,10011,-74.00514719,40.74712573
Bruton Gallery Inc,(212) 980-1640,http://www.brutongallery.co.uk/,40 E 61st St,Apt 12A,New York,10021,-73.96984506,40.76431098
Buzzco Assoc Inc,(212) 473-8800,http://www.buzzzco.com/,33 Bleecker St,,New York,10012,-73.99375529,40.72583067
C & M Arts,(212) 861-0020,http://ny.serviceslisted.com/1655047-CMArts.htm,45 E. 78th St.,,New York,10021,-73.96202951,40.77561747
Caelum Gallery,(212) 924-4161,http://www.caelumgallery.com/,526 W 26th St,,New York,10001,-74.00446732,40.75002305
Caldwell Snyder Gallery,(212) 387-0208,http://www.merchantcircle.com/business/Caldwell.Snyder.Gallery.212-387-0208,451 W Broadway,,New York,10012,-74.00041761,40.72589116
Candyland Films,(212) 219-2500,http://www.nyc.com/arts__attractions/candyland_films.209/editorial_review.aspx,446 Broadway,,New York,10013,-74.00091722,40.72028153
Caravan International Co,(212) 772-7160,http://www.nyc.com/arts__attractions/caravan_international_co.451/map_location.aspx,210 E 86th St,,New York,10028,-73.95350252,40.77813815
Carboni Inc,(212) 944-1566,http://www.yellowspinny.com/carboni+inc/bus-91954/,2 W 45th St,Ste 1702,New York,10036,-73.98021698,40.75545955
Carley Ann M Atty,(212) 334-7993,http://www.nyc.com/arts__attractions/carley_ann_m_atty.200/editorial_review.aspx,73 Spring St,,New York,10012,-73.99736114,40.72263369
Carlton Rochell,(212) 759-7600,http://www.carltonrochell.com/,41 E 57th St,,New York,10022,-73.97170664,40.76238725
Carnegie Frame Inc,(212) 307-7240,http://carnegieframing.com/,160 W 55th St,,New York,10019,-73.98077112,40.76385541
Cartoon Gallery,(718) 793-4714,http://local.botw.org/New_York/Forest_Hills/Cartoon_Gallery/2547832.html,7028 Austin St,,Forest Hills,11375,-73.84605039,40.72038139
Cartoonews Gallery,(212) 223-4666,http://local.botw.org/New_York/New_York/Cartoonews_Gallery/85838758.html,721 5th Ave,,New York,10022,-73.97410777,40.76231329
Casa Linda Galleries Inc,(212) 534-1847,http://m.nyc.com/arts__attractions/casa_linda_galleries_inc.774/map_location.aspx,300 E 95th St,,New York,10128,-73.947383,40.78335247
Casey M Kaplan Inc,(212) 645-7335,http://www.caseykaplangallery.com/,416 W 14th St,,New York,10014,-74.00652923,40.7411325
Catherine Conway Inc,(212) 627-9344,http://66.111.11.24/arts__attractions/catherine_conway_inc.161/street_view.aspx,112 W 13th St,,New York,10011,-73.9982052,40.73684463
Cavaliero Fine Arts,(212) 947-1031,http://www.cavalierofinearts.com/,242 W 36th St,,New York,10018,-73.99156926,40.75282327
Cavin-Morris,(212) 226-3768,http://www.cavinmorris.com/,560 Broadway,Ste.405B,New York,10012,-73.99779868,40.72389909
Cds Gallery,(212) 772-9555,http://www.artnet.com/gallery/112614/cds-gallery.html,74 E 79th St,,New York,10075,-73.96117092,40.77570414
Celtic Art,(718) 482-7624,http://local.botw.org/New_York/Long_Island_City/Celtic_Art/2642342.html,2415 Jackson Ave,,Long Island City,11101,-73.94476783,40.74640143
Century Artists Inc,(212) 367-7072,http://www.newcenturyartists.org/,530 W 25th St,,New York,10001,-74.00473558,40.74941973
Ceres Gallery,(212) 947-6100,http://www.ceresgallery.org/,547 W 27th St,,New York,10001,-74.00452369,40.75132406
Ceres Gallery,(212) 226-4725,http://www.barnard.edu/bcrw/guide/CD/CeresGal.htm,584 Broadway,,New York,10012,-73.99703729,40.72479496
Cfm Gallery,(212) 966-3864,http://www.cfmgallery.com/,112 Greene St,,New York,10012,-73.9994251,40.72457191
Chappell Gallery,(212) 414-2673,http://www.chappellgallery.com/,526 W 26th St,,New York,10001,-74.00446166,40.75015743
Chat Noir Design,(212) 567-5223,http://www.yelp.com/biz/chat-noir-design-new-york,295 Bennett Ave,Apt 3A,New York,10040,-73.93207459,40.85929737
Cheim & Read,(212) 242-7727,http://www.cheimread.com/,547 W 25th St,,New York,10001,-74.00513583,40.75001941
Chelsea Ceramic Guild,(212) 243-2430,http://www.chelseaceramic.com/,233 W 19th St,,New York,10011,-73.99869441,40.7423876
China 2000,(212) 588-1198,http://newyork.jadynave.com/view/comid/27328378/where/New+York-NY/comname/China-2000,5 E 57th St,,New York,10022,-73.97319627,40.76285383
China 2000 Fine Arts,(212) 472-9800,http://www.china2000fineart.com/,434A East 75th Street,,New York,10021,-73.95334299,40.76900976
Chinatown Frame & Art Inc,(212) 219-2828,http://local.botw.org/New_York/New_York/Chinatown_Frame_and_Art_Inc/157823519.html,40 Elizabeth St,,New York,10013,-73.99658768,40.71670513
Chinoh Art Gallery,(212) 255-0377,http://web2.userinstinct.com/30816040-chinoh-art-gallery.htm,69 5th Ave,,New York,10003,-73.99315956,40.73615406
Chowder Inc,(212) 352-0202,http://www.chowderinc.com/,15 W 18th St,,New York,10011,-73.99281171,40.73915341
Christiane Nienaber Contemporary Art,(212) 358-0577,http://www.rateitall.com/i-409436-christiane-nienaber-contemporary-art.aspx,191 Chrystie St,,New York,10002,-73.99227383,40.72199731
Christine Burgin Gallery,(212) 462-2668,http://www.christineburgin.com/,243 W 18th St,,New York,10011,-73.99954508,40.74199886
Cinque Gallery,(212) 966-3464,http://www.nyc-arts.org/organizations/view/id/125,560 BROADWAY,,New York,10012,-73.99759294,40.72397735
Claire Oliver Fine Arts Inc,(212) 929-5949,http://www.claireoliver.com/,513 West 26th Street,,New York,10001,-74.00338485,40.75008883
Clampart,(646) 230-0020,http://www.nileguide.com/destination/florence/things-to-do/clampart/385759,531 W 25th St,,New York,10001,-74.0046388,40.74977518
Clementine Gallery,(212) 243-5937,http://www.clementine-gallery.com/,623 W 27th St,,New York,10001,-74.00610794,40.75209329
Clinton Hill Simply Art & Framing,(718) 857-0074,http://clintonhillframe.blogspot.com/,583 Myrtle Ave,,Brooklyn,11205,-73.96081859,40.69419974
Coda Gallery,(212) 334-0407,http://www.codagallery.com,472 Broome St,,New York,10013,-74.00156429,40.72289524
Cole Sylvan Gallery,(212) 333-7760,http://www.merchantcircle.com/business/Cole.Sylvan.Gallery.212-333-7760,101 W 57th St,,New York,10019,-73.9773564,40.7646577
College of Staten Island - Center for the Arts,(718) 982-2000,http://www.cfashows.com/,2800 Victory Blvd.,,Staten Island,10314,-74.14969499,40.59966212
Columbia University - Miriam and Ira D.Wallach Art Gallery,(212) 854-7288,http://www.columbia.edu/cu/wallach/,1190 Amsterdam Ave,Schermerhorn Hall,New York,10025,-73.9604169,40.80854103
Columbus Art Gallery Inc,(212) 875-1678,http://columbusartgallery.net/home%201.html,588 Columbus Ave,,New York,10024,-73.97130508,40.78831274
Columbus Circle Gallery,(212) 489-6694,http://www.yelp.com/biz/columbus-circle-gallery-new-york,1800 Broadway,,New York,10019,-73.98122765,40.7673376
Commerce Graphics Ltd Inc,(212) 517-7648,http://www.commercegraphics.com/,504 E 74th St,,New York,10021,-73.95232973,40.76774168
Common Ground,(212) 620-3122,http://artguide.net/jfk/data/g114640.htm,55 W 16th St,,New York,10011,-73.99533453,40.73868808
Conner Rosenkranz,(212) 517-3710,http://www.crsculpture.com/,19 E 74th St,,New York,10021,-73.96490959,40.77346566
Contemporary African Art,(212) 749-8848,http://www.contempafricanart.com/,330 W 108th St,,New York,10025,-73.96880032,40.80321374
Contemporary art gallery in Chelsea. Wooster Gardens,(212) 929-2262,http://www.nyc.com/arts__attractions/wooster_gardens.157/editorial_review.aspx,558 Broadway,,New York,10012,-73.9975943,40.72367259
Cook Fine Art,(212) 737-3550,http://www.cookfineart.net/,1063 Madison Ave,,New York,10028,-73.96110243,40.77724264
Coploff Gallery,(212) 674-1024,http://www.artincontext.org/gallery/gallery_main.aspx?id=974,526 W. 26th Street,,New York,10001,-74.00455453,40.75002047
Cordier & Ekstrom Inc,(212) 988-8857,http://66.111.11.24/arts__attractions/coploff_gallery.1580/editorial_review.aspx,417 E 75th St,,New York,10021,-73.95352973,40.76951266
"Corning Gallery at Steuben, The",(646) 497-3744,http://www.cmog.org/dynamic.aspx?id=1670,667 Madison Ave.,,New York,10017,-73.97028166,40.76449625
Cowles Charles Gallery Inc,(212) 925-3500,http://www.cowlesgallery.com/,537 W 24th St,,New York,10011,-74.00542084,40.74933736
Creative Art USA Inc,(212) 727-7119,http://www.nyc.com/arts__attractions/creative_art_usa_inc.776/editorial_review.aspx,30 Vandam St,,New York,10013,-74.00497462,40.72615456
Crg Art Gallery,(212) 229-2766,http://www.crggallery.com/,535 W 22nd St,,New York,10011,-74.00613862,40.74779197
Criswick Assoc,(212) 490-2337,http://www.hotfrog.com/Companies/Criswick-Assoc_8029757,325 E 41st St,Apt 1108,New York,10017,-73.97180489,40.74901948
Crown Art Gallery Inc,(212) 757-8255,http://www.manta.com/coms2/dnbcompany_9bq07c,1609 Broadway,,New York,10019,-73.98510259,40.76062954
Crystal Art Gallery,(212) 725-5668,http://www.nyc.com/arts__attractions/crystal_art_gallery.693/editorial_review.aspx,230 5th Ave,,New York,10001,-73.98844468,40.74413705
Cuban Art Space,(212) 242-0559,http://www.cubanartspace.net/gallery/index.php,231 West 29th Street,4 Fl,New York,10001,-73.99422633,40.74865954
Cuchifritos,(212) 598-4124,http://www.aai-nyc.org/cuchifritos/titlepage.html,120 Essex St,,New York,10002,-73.98763036,40.71913487
Culture Art Gallery Llc,(212) 226-8921,http://hi.nelso.in/us/place/51090/,415 W Broadway,,New York,10012,-74.00137305,40.72477529
Culture Crossing Inc,(212) 427-2220,http://www.city-data.com/businesses/672748084-culture-crossing-inc-new-york-ny.html,40 E 94th St,Apt 29D,New York,10128,-73.9546693,40.78558211
Curatorial Art Advisory Service,(212) 463-0586,http://www.nyc.com/arts__attractions/curatorial_art_advisory_service.1721/editorial_review.aspx,5 E 16th St,,New York,10003,-73.99183911,40.73721434
Cypher Editions,(212) 274-0272,http://www.nyc.com/arts__attractions/cypher_editions.962/editorial_review.aspx,22 Wooster St,Apt 5,New York,10013,-74.00306023,40.72152348
Czech Center,(646) 422-3399,http://www.czechcenter.com/,321 E 73rd St,,New York,10021,-73.956422,40.76912229
Dactyl Foundation for the Arts,(212) 219-2344,http://www.dactyl.org/,64 Grand St.,,New York,10013,-74.00318448,40.72232072
Dai Ichi Arts,(212) 230-1680,http://www.daiichiarts.com/,249 E 48th St,,New York,10017,-73.96959312,40.75395456
Dalva Brothers Inc,(212) 717-6600,http://www.dalvabrothers.com/,52 East 77th Street,,New York,10075,-73.96290104,40.77466685
D'amelio-Terras,(212) 352-9460,http://www.damelioterras.com/home.html?dt=1,525 W 22nd St,,New York,10011,-74.00555202,40.74761065
Damp Frog Productions Inc,(212) 226-6361,http://www.merchantcircle.com/business/Damp.Frog.Productions.Inc.New.York.NY.212-226-6361,1 Orchard St,,New York,10002,-73.99227136,40.71457046
Danese,(212) 223-2227,http://www.danesegallery.com/Main/Introduction.html,535 W 24th St,,New York,10011,-74.00526783,40.74917263
Danette Koke Fine Art,(212) 206-6566,http://danettekokefineart.com/,55 Bethune St,# 318-C,New York,10014,-74.00855042,40.73679551
Daniel H Roberts Studio,(617) 728-4477,http://www.danielroberts.com/phpwcms/index.php,9 Desbrosses Street,,New York,10013,-74.00910863,40.7232345
David Killen Fine Arts,(212) 426-0079,http://www.city-data.com/businesses/579455585-david-killen-fine-arts-new-york-ny.html,1641 3rd Ave,,New York,10128,-73.95066796,40.78201539
David Nolan New York,(212) 925-6190,http://www.davidnolangallery.com/,527 W 29th St,,New York,10001,-74.00267818,40.75221446
Davis Leron Galries,(212) 838-0333,http://www.yelp.com/biz/davis-leron-galries-new-york,746 Madison Ave,,New York,10021,-73.96910832,40.76723679
DC Moore Gallery,(212) 247-2111,http://www.dcmooregallery.com/,724 5th Ave,,New York,10019,-73.97447205,40.76266951
Dca Gallery,(212) 255-5511,http://ny.serviceslisted.com/1654364-DCAGallery.htm,525 W 22nd St,,New York,10011,-74.00542352,40.74755765
De Nagy Tibor Art Gallery,(212) 262-5050,http://www.tibordenagy.com/,724 5th Ave,,New York,10019,-73.97457853,40.76270743
Dean Andree M,(212) 831-0402,http://m.nyc.com/arts__attractions/dean_andree_m.555/map_location.aspx,1035 Park Ave,,New York,10028,-73.95706273,40.77982311
Debs & Co,(212) 643-2070,http://www.debsandco.com/jacir_times.html,531 W 26th St,,New York,10001,-74.00385234,40.75017475
Greer Gallery Inc,(212) 431-6025,http://www.merchantcircle.com/business/Greer.Gallery.Inc.212-431-6025,81 Wooster St,,New York,10012,-74.00186315,40.72393891
Grimm Jay Gallery,(212) 564-7662,http://www.jaygrimm.com/,505 W 28th St,,New York,10001,-74.00212168,40.75105951
Guggenheim Asher Assocs Inc,(212) 242-5767,http://web2.userinstinct.com/30816383-guggenheim-asher-associates-inc.htm,138 W 13th St,,New York,10011,-73.99906221,40.73724886
Guggenheim Asher Assocs Inc,(212) 772-3888,http://ny.serviceslisted.com/1654994-GuggenheimAsherAssociatesInc.htm,138 W 13th St,,New York,10011,-73.99910998,40.73718458
Guy Regal Ltd,(212) 888-2134,http://guyregalltd.1stdibs.com/store/furniture_search.php?FRID=lWqTYm5qlZiY,223 E 60th St,,New York,10022,-73.96495627,40.76188644
Hall & Knight U S A Ltd,(212) 772-2266,http://www.speendex.com/New-York/New-York-City/Shopping/Arts/Hall-Knight-USA-LTD-l496249.html,21 E 67th St,,New York,10021,-73.96794455,40.76891016
Hammer Galleries,(212) 644-4400,http://www.hammergalleries.com/html/home.asp,33 W 57th St,,New York,10019,-73.97573457,40.7640147
Hanover Sq Gallery,(212) 344-4406,http://www.artnet.com/gallery/116829/hanover-square-gallery.html,202 Park Place,,Brooklyn,11238,-73.97128381,40.67698834
Harari & Johns Inc,(212) 772-3380,http://local.yahoo.com/info-11138048-harari-john-s-new-york,63 E 82nd St,,New York,10028,-73.95977553,40.77810558
Harlan & Weaver Intaglio,(212) 925-5421,http://www.harlanandweaver.com/about.htm,83 Canal St,,New York,10002,-73.99305509,40.71550208
Harlem Art Gallery,(212) 831-5333,http://wap.outalot.com/listings/286483-Harlem-Art-Gallery,86 W 119th St,,New York,10026,-73.94805169,40.80361809
Hazlitt Gooden & Fox,(212) 772-1950,http://www.hazlittgoodenandfox.com/,17 E 76th St,,New York,10021,-73.96400124,40.77471647
Healing Arts,(718) 384-6773,http://www.nyc.com/arts__attractions/healing_arts.1604/editorial_review.aspx,135 Wythe Ave.,,Brooklyn,11211,-73.96002002,40.71967845
Heilman Phillip Douglas,(212) 787-1759,http://philipdouglasfineart.com,1336 Dekalb Ave,,Brooklyn,11221,-73.924937,40.69848967
Heller Gallery,(212) 414-4014,http://www.hellergallery.com/index.php,420 W. 14th St.,,New York,10014,-74.00672064,40.74120765
Helly Nahmad Gallery Inc,(212) 879-2075,http://www.hellynahmadgallery.com/,975 Madison Ave,,New York,10021,-73.96323779,40.77441643
Hemingway African Gallery,(212) 838-3650,http://www.hemingwaygallery.com/,1050 2nd Ave,,New York,10022,-73.96554577,40.75812414
Henoch Gallery,(917) 305-0003,http://www.galleryhenoch.com/,555 W 25th St,,New York,10001,-74.00531476,40.75002819
Hirschl & Adler Galleries,(212) 535-8810,http://www.hirschlandadler.com/,21 E. 70th St.,,New York,10021,-73.96647641,40.77076084
Historical Design Collection Inc,(212) 593-4528,http://web2.userinstinct.com/30816408-historical-design-collection-inc.htm,306 E 61st St,,New York,10021,-73.96284773,40.76138938
Hochman Irena Fine Art Ltd,(212) 772-2227,http://www.artinfo.com/galleryguide/19384/5933/irena-hochman-fine-art-ltd/visit/,1100 Madison Ave,Ph,New York,10028,-73.96078341,40.77848561
HOFFELD JEFFREY & CO,(212) 996-6339,http://www.nyc.com/arts__attractions/hoffeld_jeffrey__co.469/map_location.aspx,360 E 88TH ST,,New York,10128,-73.9489083,40.77816244
Holmberg I,(212) 545-9155,http://local.yahoo.com/info-11081229-irmeli-holmberg-gallery-new-york,280 Madison Ave,,New York,10016,-73.98065902,40.75150285
Honda Fine Art,(212) 477-4086,http://www.yellowbot.com/honda-fine-art-new-york-ny.html,55 Great Jones St,,New York,10012,-73.9924632,40.72642838
Hoorn-Ashby Gallery,(212) 628-3199,http://www.hoornashby.com/,766 Madison Ave,,New York,10021,-73.96860379,40.76788288
Horan Vivian Fine Art,(212) 517-9410,http://www.vivianhoran.com/,35 E 67th St,,New York,10021,-73.96707384,40.76853707
Horus Art Enterprises,(212) 688-8729,http://www.nyc.com/arts__attractions/horus_art_enterprises.355/whats_nearby.aspx,200 E 65th St,,New York,10021,-73.96351076,40.76480382
Howard Greenberg Gallery,(212) 334-0010,http://www.howardgreenberg.com/,41 E 57th St,,New York,10022,-73.97186783,40.76244505
Howard Nowes Ancient Art,(917) 339-0620,http://www.howardnowes.com/,1220 Broadway,,New York,10001,-73.98814827,40.7469112
Howard Scott Gallery,(212) 472-5171,http://www.howardscottgallery.com/,303 East 81st Street,,New York,10028,-73.95345448,40.7746112
Hubert Gallery,(212) 628-2922,http://www.hubertgallery.com/,1046 Madison Ave,,New York,10075,-73.96187638,40.77694751
Hubert Gallery North,(212) 535-9723,http://www.nyc.com/arts__attractions/hubert_gallery_north.674/editorial_review.aspx,1046 Madison Ave,,New York,10021,-73.96193403,40.77687206
Hut Gallery the,(718) 222-9519,http://home.vicnet.net.au/~thehut/,84 Hoyt St,,Brooklyn,11201,-73.98698066,40.68807177
Hutton Leonard Galleries,(212) 751-7373,http://www.leonardhuttongalleries.com/,41 E 57th St,,New York,10022,-73.97191597,40.7623751
Hutton Leonard Galleries Facs,(212) 751-7373,http://www.leonardhuttongalleries.com/,41 E 57th St,,New York,10022,-73.97196242,40.76231286
Hw Gerst,(212) 288-3400,http://www.localartdealers.com/New-York/Hw-Gerst-12176.html,955 5th Ave,,New York,10021,-73.96458036,40.77531718
I & L Image Corp,(212) 627-4649,http://local.botw.org/New_York/New_York/I_and_L_Image_Corp/6719000.html,529 W 20th St,,New York,10011,-74.00694992,40.74654219
I C Editions,(212) 647-9111,http://www.iceditions.com/,522 West 24 Street,,New York,10011,-74.00516169,40.74877351
I Perry,(212) 925-6704,http://www.nyc.com/arts__attractions/i_perry.969/editorial_review.aspx,481 Washington St,,New York,10013,-74.00978327,40.72561867
Illustration House Inc,(212) 966-9444,http://www.illustration-house.com/,110 W 25th St,,New York,10001,-73.99252245,40.74424858
Images Corporate Art Services,(212) 219-8484,http://newyorkny.zemantics.com/business/images-corporate-art-services,400 E 56th St,,New York,10022,-73.96308722,40.7570848
Incredibleart.Com Inc,(646) 613-9383,http://www.upspring.com/incredibleartcom-inc-new-york-ny.html,25 Mercer St,,New York,10013,-74.00204405,40.72091221
Indians On Columbus,(212) 769-9374,http://www.nyc.com/arts__attractions/indians_on_columbus.947/map_location.aspx,452 Columbus Ave,,New York,10024,-73.97464955,40.78373479
Infinity Fine Arts Inc,(212) 645-6880,http://www.speendex.com/New-York/New-York-City/Shopping/Arts/Infinity-Fine-Arts-Inc-l496199.html,511 W 25th St,,New York,10001,-74.00371025,40.7495165
Inner City Art Gallery Inc,(212) 368-4941,http://outside.in/harlem-manhattan-ny/inner-city-art-gallery-inc,2251 Adam Clayton Powell Jr Blvd,,New York,10027,-73.94456809,40.8135293
Innovative Art Gallery Inc,(212) 367-8844,http://www.nyc.com/arts__attractions/innovative_art_gallery_inc.804/editorial_review.aspx,154 W 14th St,,New York,10011,-73.99954514,40.73816931
Inter Art Gallery,(212) 647-1811,http://www.interartny.com/,225 10th Ave,,New York,10011,-74.00418891,40.74805554
International Print Center New York,(212) 989-5090,http://www.ipcny.org/,526 W 26th St,,New York,10001,-74.00429062,40.75004718
Irit Baniel Studio,(917) 202-2527,http://iritbaniel.com/index.php,582 DRIGGS AVENUE,,Brooklyn,11211,-73.95735398,40.71640453
Ise Art Foundation,(212) 925-1649,http://iseny.org/usr_helio1/index.php,555 Broadway,,New York,10012,-73.99864412,40.72392227
Isselbacher Gallery Inc,(212) 472-1766,http://www.isselbacherart.com/,64 E 86th St,,New York,10028,-73.95822258,40.78033057
J Cacciola Galleries,(212) 462-4646,http://www.jcacciolagallery.com/,617 W 27th St,,New York,10001,-74.00583688,40.75206092
J M Art Gallery,(212) 247-4708,http://www.artincontext.org,1760 Broadway,,New York,10019,-73.98154615,40.76582551
Jadite Galleries,(212) 977-6190,http://jadite.com/,413 W 50th St,,New York,10019,-73.98967473,40.76396461
Jain Marunouchi Gallery,(212) 969-9660,http://www.artin2000.com/,24 W 57th St,,New York,10019,-73.97565215,40.76343013
James Cohan Gallery,(212) 714-9500,http://www.jamescohan.com/,533 W 26th St,,New York,10001,-74.0040987,40.7503964
James Graham & Sons Gallery,(212) 535-5767,http://www.jamesgrahamandsons.com/,1014 Madison Ave,,New York,10021,-73.96267507,40.77588116
Jane St Lifer Fine Art Inc,(212) 825-2059,http://www.linkedin.com/in/stliferart,140 Riverside Blvd,,New York,10069,-73.98862442,40.7770141
Janoray Charles Llc,(212) 472-5679,http://www.manta.com/coms2/dnbcompany_c3pst0,11 E 76th St,,New York,10021,-73.96416054,40.77484441
Japanese Art Dealers Assoc of Ny,(212)222-4688,http://www.jada-ny.org/contact.html,17 East 76th Street,3rd Fl.,New York,10021,-73.96394359,40.77479192
Jbpa Llc,(212) 242-5505,http://www.nyc.com/arts__attractions/jbpa_llc.789/whats_nearby.aspx,65 W 13th St,,New York,10011,-73.99677783,40.73683276
Jeff Lewis Studio,(212) 966-7119,http://www.nyc.com/arts__attractions/jeff_lewis_studio.684566/editorial_review.aspx,9 Desbrosses Street,,New York,10013,-74.00896057,40.72321298
Jeffrey Coploff Fine Art Ltd,(212) 741-1149,http://www.artincontext.org,508 W 26th St,,New York,10001,-74.00382219,40.74985463
Jimmy's Art Gallery,(212) 873-3993,http://www.speendex.com/New-York/New-York-City/Home-Garden/General/Jimmy-s-Art-Gallery-l461896.html,166 W 72nd St,,New York,10023,-73.98122671,40.7781549
Joan Peck Limited Art Gallery,(212) 427-4900,http://www.nyc.com/arts__attractions/joan_peck_limited_art_gallery.811/whats_nearby.aspx,1 W 67th St,,New York,10023,-73.97885635,40.77350104
Joan Whalen Fine Art,(212) 397-9700,http://www.artnet.com/jwhalen.html,24 W. 57th St.,#507,New York,10019,-73.97556494,40.76338705
John Elder Gallery,(212) 462-2600,http://www.artinfo.com/galleryguide/12415/910/john-elder-gallery-new-york/visit/,529 W 20th St,,New York,10011,-74.00677134,40.74664084
John McEnroe Gallery,(212) 219-0395,http://www.tripadvisor.com/Attraction_Review-g60763-d548700-Reviews-John_McEnroe_Gallery-New_York_City_New_York.html,41 Greene St.,,New York,10013,-74.00213616,40.72208699
John Stevenson Gallery,(212) 352-0070,http://www.johnstevenson-gallery.com/,338 W 23rd St,,New York,10011,-74.00007742,40.74572696
Jonathan Shorr Gallery,(212) 925-2723,http://www.jonathanshorrgallery.com/,109 Crosby St,,New York,10012,-73.99657105,40.72411875
Judaica Illuminations,(718) 375-4600,http://www.judaicailluminations.com/,1664 Coney Island Ave,,Brooklyn,11230,-73.96395886,40.61677558
Julie Artisans Gallery,(212) 717-5959,http://www.julieartisans.com/,762 Madison Ave,,New York,10065,-73.9686677,40.7677819
Julie Saul Gallery,(212) 627-2410,http://www.saulgallery.com/,535 W 22nd St,,New York,10011,-74.00619866,40.74789792
JUNE BATEMAN FINE  GALLERY,(212) 925-7951,http://www.junebateman.com/,1133 BROADWAY,,New York,10010,-73.9893707,40.74367565
K S Art,(212) 219-9918,http://www.ksartonline.com/gallery.html,73 Leonard St,,New York,10013,-74.00518748,40.71764124
Kahan Fine Art Galleries Ltd,(212) 861-3682,http://local.yahoo.com/info-11111359-kahan-fine-art-galleries-limited-new-york?csz=Bloomfield%2C+NJ+07003,422 E 72nd St,,New York,10021,-73.95504393,40.76682971
Kaller-Kimche R Inc,(212) 288-5698,http://www.artantiquedealersleague.org/dealerdetails.asp?dealerID=49,23 E 74th St,Apt 8E,New York,10021,-73.96473207,40.77345637
Kang Byung,(212) 734-1490,http://www.kangcollection.com/,9 E 82nd St,,New York,10028,-73.96128971,40.77867171
Kapoor Galleries Inc,(212) 794-2300,http://www.kapoorgalleries.com/,40 E 78th St,,New York,10021,-73.96257907,40.7752396
Kashya Hildebrand,(212) 366-5757,http://www.kashyahildebrand.org/,531 W 25th St,,New York,10001,-74.00443297,40.74968946
Katherine Blackburne Studios,,http://katherineblackburne.com/,9 Desbrosses Street,,New York,10013,-74.00924361,40.72325271
Kathryn Markel Fine Arts Inc,(212) 366-5368,http://www.markelfinearts.com/,529 W 20th St,,New York,10011,-74.00693866,40.74671947
Katz Steven,(212) 505-8815,http://www.ziphip.com/katz+steven.9.51373377p.home.html,32 Union Sq,,New York,10001,-73.98920391,40.73552236
Keats R Stuart,(212) 696-5728,http://www.yelp.com/biz/keats-r-stuart-fine-arts-new-york,120 E 36th St,,New York,10016,-73.97949841,40.74776391
Keith Copley Gallery,(212) 216-0614,http://m.nyc.com/arts__attractions/keith_copley_gallery.1657/map_location.aspx,545 W 34th St,,New York,10001,-74.00074259,40.75569251
Keith de Lellis Gallery,(212) 327-1482,http://www.keithdelellisgallery.com/,1045 MADISON AVENUE,#3,New York,10075,-73.96155652,40.77664162
Kelly June Gallery,(212) 226-1660,http://www.junekellygallery.com/,591 Broadway,,New York,10012,-73.99753865,40.72507391
Kem Art Studio,(212) 929-9017,http://www.nyc.com/arts__attractions/kem_art_studio.574/editorial_review.aspx,80 5TH AVE RM 1506,,New York,10011,-73.99409339,40.73593099
Kempner Jim Fine Art,(212) 206-6872,http://www.artnet.com/jkfa.html,501 W 23rd St,,New York,10011,-74.00425507,40.74796363
Kenkeleba Gallery,(212) 674-3939,http://www.merchantcircle.com/business/Kenkeleba.Gallery.212-674-3939,214 E 2nd St,,New York,10009,-73.98286541,40.72203677
Kent Gallery,(212) 627-3680,http://www.kentgallery.com/,541 West 25th Street,Second Floor,New York,10001,-74.00473858,40.74986992
Kentler International Drawing Space,(718) 875-2098,http://www.kentlergallery.org/,353 Van Brunt Street,,Brooklyn,11231,-74.01299286,40.67694141
Keogh & Riehlman Fine Art,(212) 879-2545,http://www.nycpaintings.com/about/about.shtm,24 E 73rd St,,New York,10021,-73.96541796,40.77253251
Keya Gallery,(212) 366-9742,http://www.keyagallery.com/,14 Wall Street,,New York,10005,-74.01076961,40.70762945
Kim Foster Gallery,(212) 229-0044,http://www.kimfostergallery.com/,529 W 20th St,,New York,10011,-74.00686533,40.74654934
Kind Phylis Gallery,(212) 925-1200,http://www.artslant.com/ny/venues/show/713-phyllis-kind-gallery,236 West 26th Street,,New York,10001,-73.99586876,40.74652399
King David Art Gallery,(212) 727-9700,http://www.kingdavidgallery.com/,128 West 23rd Street,,New York,10011,-73.99400408,40.74315985
"Kinz, Tillou + Feigen",(212) 929-0500,http://www.yelp.com/biz/kinz-tillou-feigen-gallery-new-york,529 West 20th Street,11th Fl.,New York,10011,-74.00701008,40.7466394
Klagsbrun Nicole Gallery,(212) 243-3335,http://nicoleklagsbrun.com/,526 W 26th St,,New York,10001,-74.00433593,40.7499731
Klotz Sirmon Gallery,(212) 741-4764,http://www.photocollect.com/,511 W 25th St,,New York,10001,-74.00395717,40.74962416
Kokon Inc,(212) 744-5577,http://www.nyc.com/arts__attractions/kokon_inc.884/whats_nearby.aspx,58 E 66th St,,New York,10021,-73.9674822,40.76744319
Kraus Carole Ltd,(646) 522-9858,http://www.carolekraus.com/,330 W 38th St,,New York,10018,-73.9935019,40.7552543
Kraushaar Galleries,(212) 307-5730,http://www.kraushaargalleries.com/,74 E 79th St,,New York,10075,-73.96115441,40.77564019
Kravets Wehby,(212) 352-2238,http://www.kravetswehbygallery.com/,521 W 21st St,,New York,10011,-74.00604109,40.74710853
Kravets Wehby Gallery,(212) 352-2238,http://www.kravetswehbygallery.com/,521 W 21st St,,New York,10011,-74.00627468,40.74707249
Krienke Kendra,(212) 580-6516,http://newyork.citysearch.com/profile/7169377/new_york_ny/krienke_kendra.html,230 Central Park W,,New York,10024,-73.97094199,40.78367572
L A Cotton,(212) 838-6390,http://www.nyc.com/arts__attractions/l_a_cotton.1802/editorial_review.aspx,645 Madison Ave,,New York,10001,-73.97082633,40.76390488
La Belle Epoque Vintage Posters Inc,(212) 362-1770,http://www.la-belle-epoque.com/,280 Columbus Ave,,New York,10023,-73.97835368,40.77838511
Lally J J & Co,(212) 371-3380,http://www.nyc.com/arts__attractions/lally_j_j__co.421/whats_nearby.aspx,41 E 57th St,,New York,10022,-73.97193281,40.76247459
Lamontage,(212) 989-2732,http://www.lioramanne.com/index.php?cid=home,210 11th Ave,Fl 7,New York,10001,-74.00587275,40.74995615
Landy Fine Art,(212) 505-3702,http://lohoguide.com/~lohoguid/app/site/landyfineart/index.php,264 E Broadway,,New York,10002,-73.98517984,40.71492376
Langotsky Gamba,(212) 675-0761,http://www.manta.com/coms2/dnbcompany_gksp3l,537 Greenwich St,,New York,10013,-74.00861745,40.7270818
Lehman College - Art Gallery,(718) 960-7830,http://www.lehman.cuny.edu/vpadvance/artgallery/gallery/,250 Bedford Park Blvd West,,Bronx,10468,-73.89291006,40.87458975
Lehmann Maupin,(212) 965-0753,http://www.lehmannmaupin.com/,540 W 26th St,,New York,10001,-74.00481382,40.75019805
Lelong Galerie,(212) 315-0470,http://www.galerielelong.com/,526 W 26th St,,New York,10001,-74.00419548,40.75004374
Lemmons Durham Contemporary Art,(212) 337-0025,http://ny.serviceslisted.com/1654446-LemmonsDurhamContemporaryArt.htm,210 11th Ave,,New York,10001,-74.00593617,40.74986484
Lennon Weinberg Inc,(212) 941-0012,http://www.lennonweinberg.com/flash.html,514 W 25th St,,New York,10001,-74.00412151,40.74911049
Leo Castelli Gallery,(212) 249-4470,http://www.castelligallery.com/,18 E 77th St,,New York,10021,-73.96371065,40.7750123
Leo Kaplan Modern Ltd,(212) 872-1616,http://www.lkmodern.com/,114 E 57th St,,New York,10022,-73.97007752,40.76109138
Leo Koenig Inc,(212) 334-9255,http://www.leokoenig.com/,545 West 23rd Street,,New York,10011,-74.00588392,40.74887767
Leon Tovar Gallery,(212) 585-2400,http://www.leontovargallery.com/a/index.php,16 E 71st St,Ste 1A,New York,10021,-73.96652982,40.77112199
Leslie-Lohman Gay Art Foundation,(212) 673-7007,http://www.leslielohman.org,131 Prince St,,New York,10012,-74.0002743,40.72565728
Levin Betty,(212) 355-5370,http://www.nyc.com/arts__attractions/levin_betty.405/editorial_review.aspx,41 E 57th St,,New York,10022,-73.97198517,40.76240336
Levine Elizabeth & Assocs,(212) 874-5334,http://www.manta.com/coms2/dnbcompany_6mflzr,565 W End Ave,,New York,10024,-73.97752234,40.78986636
Lewitt Fine Art Gallery,(212) 628-0918,http://www.tyloon.com/business_profile/CID-2243409/lewitt_fine_art_gallery.html,16 E 79th St,,New York,10021,-73.96271301,40.77635843
Lexington Art & Frame Co,(212) 319-3724,http://www.merchantcircle.com/business/Lexington.Art.And.Frame.Co.New.York.NY.212-319-3724,832 Lexington Ave,,New York,10021,-73.96626234,40.76517409
Limner Gallery,(212) 725-0999,http://www.slowart.com/limner/index.htm,870 Avenue of the Americas,,New York,10001,-73.98905874,40.74758822
Decor Art Gallery,(212) 683-9729,http://local.yahoo.com/info-32910954-decor-art-gallery-new-york,551 3rd Ave,,New York,10016,-73.9766441,40.74722503
Decor Art Gallery Inc,(212) 481-3728,http://wap.outalot.com/listings/278197-Decor-Art-Gallery,353 3rd Ave,,New York,10010,-73.98154386,40.74042555
Decor Art Gallery Inc,(212) 604-9864,http://local.botw.org/New_York/New_York/Decor_Art_Gallery_Inc/141709258.html,158 7th Ave,,New York,10011,-73.99753555,40.74199628
Decor Art Gallery VII+,(212) 673-1366,http://www.nyc.com/arts__attractions/decor_art_gallery_vii.1769/editorial_review.aspx,222 3rd Ave,,New York,10003,-73.98527373,40.73636204
Deitch Projects,(212) 343-7300,http://www.deitch.com/gallery/index.php,76 Grand St,and 18 Wooster St,New York,10013,-74.00256827,40.72203364
Demirjian Torkom,(212) 772-3388,http://directory.nh.com/demirjian+torkom.9.53066079p.home.html,970 Madison Ave,,New York,10021,-73.96384991,40.77424074
Demu Gallery,(718) 596-8484,http://local.yahoo.com/info-11335092-demu-m-demu-gallery-brooklyn,761 Fulton St,,Brooklyn,11217,-73.9740749,40.68639582
Denise Bibro Fine Art,(212) 647-7030,http://www.denisebibrofineart.com/,529 W 20th Street,4th Floor,New York,10011,-74.00695182,40.74677236
Dennis De Lorenzo Gallery,(212) 754-9084,http://whrrl.com/place/1220517/dennis-de-lorenzo-gallery-new-york,21 E 62nd St,,New York,10021,-73.97027929,40.76581474
Derek Eller Gallery,(212) 206-6411,http://www.derekeller.com/,15 W 27th St,,New York,10001,-73.98825307,40.74450714
Dickinson Roundell Inc,(212) 772-8083,http://www.simondickinson.com/new-york/,19 E 66th St,,New York,10021,-73.96854541,40.7682544
Dollhaus,(718) 384-6139,http://www.dollhaus.org,37 Broadway,,Brooklyn,11211,-73.96730076,40.71084128
Donson Theodore B Ltd,(212) 245-7007,http://gallerydriver.com/?method=Gallery.GalleryDetail&GalleryID=489E045F-3048-28EB-92E651990B61FCBA,24 W 57th St,,New York,10019,-73.97573603,40.76332076
Dorfman Projects,(212) 352-2272,http://www.dorfmanprojects.com/,529 W 20th St,Ste 7E,New York,10011,-74.00682775,40.74671947
Dorsky Carol,(212) 327-0750,http://www.carolsimondorsky.com/,20 E 74th St,,New York,10021,-73.9649229,40.77303693
Doug Meyer Fine Art,(718) 375-8006,http://fineartamerica.com/profiles/doug-meyer-fine-art.html,1775 E 34th St,,Brooklyn,11234,-73.93693176,40.61278272
Downtown Arts Festival,(212) 243-5050,http://www.gvlculturalaffairs.org/website/programs_events/DFAS/downtown_art_fest.html,114 Fulton St,,New York,10038,-74.00737811,40.70981333
Downtown Music Gallery,(212) 473-0043,http://www.downtownmusicgallery.com/Main/index.htm,13 Monroe Street,,New York,10002,-73.99592592,40.71165385
Dranoff Fine Art,(212) 966-0153,http://www.dranofffineart.com/FrontendArt/default.htm,591 Broadway,,New York,10012,-73.99738556,40.72499658
Dresden Art Galries,(212) 695-6250,http://ny.serviceslisted.com/1654860-DresdenArtGalries.htm,401 7 Avenue,,New York,10001,-73.99099244,40.74975506
DUMBO Arts Center,(718) 694-0831,http://www.dumboartscenter.org/,30 Washington St,,Brooklyn,11201,-73.98981275,40.7034732
Duncan Ligoa,(212) 988-3110,http://local.botw.org/New_York/New_York/Duncan_Ligoa/4371209.html,22 E 72nd St,,New York,10021,-73.96590831,40.77169855
E Art Group,(212) 931-6690,http://boundlessgallery.com/directory/gallery/1197/E-Art-Group,224 W 30th St,,New York,10001,-73.99390782,40.74883453
Eastern Arts Inc,(212) 366-5385,http://www.nyc.com/arts__attractions/eastern_arts_inc.270/editorial_review.aspx,68 Jane St,,New York,10014,-74.00670811,40.73799489
Edward Thorp Gallery,(212) 691-6565,http://www.edwardthorpgallery.com/,210 11th Ave,,New York,10001,-74.00608115,40.74981056
Edwynn Houk Gallery,(212) 750-7070,http://www.houkgallery.com/,745 5th Ave,,New York,10151,-73.97334239,40.76341083
Eileen Walters Gallery,(212) 362-4300,http://trustedplaces.com/review/us/ny/new-york/cultural/142547j/eileen-walters-gallery,411 West End Ave,West End Ave & 82nd St W,New York,10024,-73.98109485,40.78498335
Elga Wimmer,(212) 206-0006,http://www.elgawimmer.com/,526 W 26th St,,New York,10001,-74.00432687,40.75010231
Elizabeth Dee Gallery,(212) 924-7545,http://www.elizabethdeegallery.com/,545 West 20th Street,,New York,10011,-74.00753313,40.7468852
Elizabeth Harris Gallery,(212) 463-9666,http://www.elizabethharrisgallery.com/,529 W 20th St,,New York,10011,-74.00677134,40.74657937
Elizabeth Mayer Fine Art,(212) 879-1241,http://local.botw.org/New_York/New_York/Elizabeth_Mayer_Fine_Art/56447096.html,55 E 73rd St,,New York,10021,-73.96383795,40.77222815
Elizabeth Moore Fine Art,(212) 744-8177,http://local.botw.org/New_York/New_York/Elizabeth_Moore_Fine_Art/9195013.html,963 Lexington Ave,,New York,10021,-73.96285621,40.76910952
Elizabeth Wang Gallery,(212) 752-4881,http://www.elizabethwanggallery.com/,800 5th Ave,,New York,10021,-73.97162703,40.76559751
Elkon Gallery Inc,(212) 535-3940,http://www.artnet.com/elkon.html,18 E 81st St,,New York,10028,-73.96186682,40.7777238
Elliot Stevens Ltd,(212) 355-8333,http://web2.userinstinct.com/30816160-elliot-stevens-ltd.htm,301 Park Ave,,New York,10022,-73.97334597,40.7565026
Emily Harvey Gallery,(212) 925-7651,http://www.emilyharveyfoundation.org/,537 Broadway,,New York,10012,-73.99900175,40.72350584
Environment Home Furnshngs Inc,(212) 688-5880,http://www.ibegin.com/directory/us/new-york/new-york/environment-home-furnshngs-inc-205-e-60th-st/,205 E 60th St,,New York,10022,-73.96555408,40.76208203
Equatorial America Inc,(212) 593-3306,http://www.nyc.com/arts__attractions/equatorial_america_inc.410/editorial_review.aspx,411 E 53rd St,,New York,10022,-73.96424712,40.7557595
Equitable Appraisal Co Inc,(212) 535-3160,http://vendors.findlaw.com/scripts/profiles/151087.html,19 E 75th St,,New York,10021,-73.96428936,40.77397695
Equity Art Brokers,(212) 593-3188,http://www.nyc.com/arts__attractions/equity_art_brokers.561/editorial_review.aspx,340 E 52nd St,,New York,10022,-73.9661194,40.75528418
Equity Art Brokers,(212) 620-7604,http://ny.serviceslisted.com/1654740-EquityArtBrokers.htm,40 W 25th St,,New York,10010,-73.99114641,40.74367716
Erotics Gallery,(212) 633-2241,http://www.rateitall.com/i-409540-erotics-gallery.aspx,41 Union Sq W,Ste 1011,New York,10003,-73.99057186,40.73707046
Esso Gallery,(212) 560-9728,http://www.essogallery.com/,531 W 26th St,,New York,10001,-74.00381837,40.75024969
Exhibit A,(212) 343-0230,http://www.essogallery.com/,160 Mercer St,,New York,10012,-73.99769215,40.72505669
Exit Art,(212) 966-7745,http://www.exitart.org/site/pub/main/index.html,475 10th Ave,,New York,10018,-73.99850449,40.75624293
Exotiqa II,(212) 721-4394,http://www.speendex.com/New-York/New-York-City/Shopping/Arts/Exotiqa-II-l497278.html,280 City Island Ave,,Bronx,10464,-73.78597885,40.84660712
Eye Jammie Fine Arts Gallery,(212) 645-0061,http://www.eyejammie.com/,516 W 25th St,,New York,10001,-74.00430836,40.74926699
Eyebeam Atelier,(212) 937-6580,http://eyebeam.org/,540 W 21st St,,New York,10011,-74.0070564,40.74698648
Ezair Gallery,(212) 628-2224,http://www.ezairgallery.com/,905 Madison Ave,,New York,10021,-73.96488957,40.77214609
Faith Art Gallery Corp,(718) 596-4659,http://ny.citysquares.com/brooklyn/downtown-brooklyn/arts-entertainment/artists-art-dealers/faith-art-gallery-corp,393 Bridge St,,Brooklyn,11201,-73.98502184,40.69145797
Feature Inc,(212) 675-7772,http://featureinc.com/,530 W 25th St,,New York,10001,-74.00465743,40.74938528
Fields Walter,(212) 477-7159,http://newsday.planetdiscover.com/sp?aff=1110&skin=200&siteId=227580,208 E 7th St Ofc,,New York,10009,-73.97999416,40.72434453
Fifty-Five Mercer Gallery,(212) 226-8513,http://www.merchantcircle.com/blogs/Fifty.Five.Mercer.Gallery.212-226-8513,55 Mercer St,,New York,10013,-74.00122059,40.72199019
Findlay David Galleries,(212) 249-2909,http://www.davidfindlaygalleries.com/,1202 Lexington Ave,Suite 282,New York,10028,-73.95786468,40.77671113
Findlay David Jr Fine Art,(212) 486-7660,http://www.davidfindlayjr.com/,41 E 57th St,,New York,10022,-73.97174887,40.76231666
Findlay Peter Gallery,(212) 644-4433,http://www.findlay.com/,41 E 57th St,,New York,10022,-73.97180039,40.76223773
Fine Art Acquisitions,(212) 431-3744,http://m.nyc.com/arts__attractions/fine_art_acquisitions.204/map_location.aspx,122 Spring St,,New York,10012,-74.00029974,40.72359332
Fine Art Alacarte,(212) 766-4954,http://www.nyc.com/arts__attractions/fine_art_alacarte.1793/map_location.aspx,89 South Street,S Street Seaport,New York,10001,-74.00380156,40.70636686
Fine Art Services & Transport,(718) 784-9399,http://www.museumsusa.org/vendors/info/1259295,48-75 37th St,,Long Island City,11101,-73.92883941,40.73823239
First Street Gallery,(646) 336-8053,http://www.firststreetgallery.net/,526 W 26th St,Rm 915,New York,10001,-74.00443447,40.74996793
Fischbach Gallery,(212) 759-2345,http://www.fischbachgallery.com/,210 Eleventh Ave.,Ste. 801,New York,10001,-74.00602113,40.74989671
Flushing Art Gallery,(718) 445-6748,http://www.city-data.com/businesses/937101806-flushing-art-gallery-flushing-ny.html,3711 Main St,,Flushing,11354,-73.83041138,40.76141732
Focal Point Gallery,(718) 885-1403,http://www.focalpointgallery.com/,321 City Island Ave,,Bronx,10464,-73.78685976,40.84756078
Folin Riva Inc,(212) 242-3434,http://www.nyc.com/arts__attractions/folin_riva_inc.1485/editorial_review.aspx,535 W 20th St,,New York,10011,-74.00707399,40.74660509
Folklorica,(212) 750-6765,http://www.nyc.com/arts__attractions/folklorica.950/map_location.aspx,12 E 53rd St,,New York,10022,-73.97503919,40.75983435
Forbes Magazine Galleries,(212) 206-5548,http://www.forbesgalleries.com/,60 Fifth Avenue,,New York,10011,-73.99479483,40.73502191
Forrest Scott Group,(212) 274-8100,http://www.forrestscottgallery.com/corporate.html,270 Lafayette St,,New York,10012,-73.99647309,40.72397526
Fortress Fae Worldwide,(718) 786-9418,http://long_island_city.ny.ooberunder.com/7817245-fortress.fae.worldwide,4920 5th St,,Long Island City,11101,-73.95653685,40.74335663
Fortress Ny,(718) 937-5500,http://www.thefortress.com/Locations/ny.html,4920 5th St,,Long Island City,11101,-73.95672413,40.74338983
Fortuna Fine Arts Ltd,(212) 794-7272,http://www.fortunafineartsltd.ypgs.net/,984 Madison Ave,,New York,10021,-73.96344115,40.77485986
Forum Gallery,(212) 355-4545,http://www.forumgallery.com/,745 5th Ave,,New York,10151,-73.97342331,40.76329345
Fowa Enterprises Corp,(212) 571-3838,http://ny.citysquares.com/manhattan/chinatown/arts-entertainment/artists-art-dealers/fowa-enterprises-corp,17 E Broadway,,New York,10002,-73.99701259,40.71331565
Franklin Bowles Galleries,(212) 226-1616,http://www.franklinbowlesgallery.com/,431 W Broadway,,New York,10012,-74.00094987,40.72526683
Franklin Parrasch Gallery,(212) 246-5360,http://www.franklinparrasch.com/,20 W 57th St,,New York,10019,-73.97543422,40.76337208
Frederick Schultz Ancient Art,(212) 721-6007,http://local.yahoo.com/info-45126467-frederick-schultz-ancient-art-new-york,325 W 82nd St,,New York,10024,-73.98069884,40.78690228
Fredericks Freiser Gallery,(212) 633-6555,http://www.fredericksfreisergallery.com/,504 W. 22nd St.,,New York,10011,-74.00519619,40.74706889
Frederieke Taylor Gallery,(646) 230-0992,http://www.frederieketaylorgallery.com/,535 W 22nd St,,New York,10011,-74.0062383,40.74784537
Frei-Nathan Susan Fine Works On Paper Llc,(212) 517-8878,http://www.sfnbotanicalart.com/,245 E 80th St,,New York,10021,-73.95473116,40.77433136
Friedman Vallois Llc,(212) 517-3820,http://www.livevillage.com/newyork/art/friedman-vallois-llc.html,27 E 67th St,,New York,10021,-73.96744386,40.7685893
Friedrich Petzel Gallery,(212) 680-9467,http://www.petzel.com/,535 W. 22nd St.,,New York,10011,-74.00609559,40.74785399
Frielich Bros-Deutsch Bros,(212) 777-3051,http://www.yelp.com/biz/frielich-bros-deutsch-bros-new-york,670 Broadway,,New York,10012,-73.99481412,40.72722478
Friends of Bezalel Academy,(212) 687-0542,http://www.bezalelfriends.org/,501 5th Ave,,New York,10017,-73.98073127,40.75313967
Fulton Plaza,(212) 835-8600,http://www.nyc.com/arts__attractions/fulton_plaza.1801/editorial_review.aspx,106 Fulton St,,New York,10038,-74.00704683,40.70958977
Fulton St Art Gallery,(212) 587-5984,http://www.yellowbot.com/fulton-street-art-gallery-new-york-ny.html,116 John St,,New York,10038,-74.00589066,40.70746874
G P L Promotions Ltd,(212) 684-1066,http://www.city-data.com/businesses/113165997-gpl-promotions-ltd-new-york-ny.html,220 Madison Ave,,New York,10016,-73.98207161,40.74955564
Gagosian Gallery Chelsea,(212) 741-1111,http://www.gagosian.com/,555 W 24th St,,New York,10011,-74.00539201,40.74908344
Gagosian Gallery Uptown,(917) 432-1471,http://www.gagosian.com/,980 Madison Ave,,New York,10021,-73.96358045,40.77483506
Galerie Des Arts Ltd,(212) 861-7925,http://athome.kimvallee.com/places/places/us/new-york/new-york/galerie-des-arts-ltd,18 E 76th St,,New York,10021,-73.96420493,40.77441872
Galerie Thomas,(212) 675-7296,http://newyork.maplist.org/viewthread.php?tid=442935,41 Perry St,,New York,10014,-74.00283704,40.73581223
Galleria On Third,(212) 683-2886,http://www.galleriaonthird.com/,529 3rd Ave,,New York,10016,-73.97718802,40.74640198
Galleria Ramis Barquet Ny Ltd,(212) 644-9090,http://www.nyc.com/arts__attractions/galleria_ramis_barquet_ny_ltd.1552/whats_nearby.aspx,41 E 57th St,,New York,10022,-73.97179188,40.76241422
Gallery 151,(212) 675-5311,http://gallery151.com/,350 Bowery,,New York,10012,-73.99204714,40.72674329
Gallery 292,(212) 431-0292,http://findarticles.com/p/articles/mi_m1248/is_9_91/ai_108278541/,120 Wooster St,,New York,10012,-74.00008646,40.72505116
Gallery 49,(917) 915-6369,http://www.gallery49.com/,310 W 49th St,,New York,10019,-73.98751492,40.76183839
Gallery 71 Inc,(212) 744-7779,http://www.gallery71.com/,974 Lexington Ave,,New York,10021,-73.96299599,40.76963622
Gallery 91,(212) 966-3722,http://www.gallery91.com/,91 Grand St,,New York,10013,-74.00215738,40.72140577
Gallery at the American Bible Society,(212) 408-1500,http://www.socialweb.net/Places/2752.lasso,1865 Broadway,,New York,10023,-73.98273876,40.77025398
Gallery at the New York School of Interior Design,(212) 472-1500,http://www.nyc-arts.org/organizations/153/gallery-of-new-york-school-of-interior-design,170 E. 70th St.,,New York,10021,-73.96246363,40.76856417
Gallery Bai Inc,(212) 947-4142,http://www.merchantcircle.com/business/Gallery.Bai.Inc.New.York.NY.212-947-4142,520 W 43rd St,,New York,10036,-73.99627932,40.76059646
Gallery Henoch,(917) 305-0003,http://www.galleryhenoch.com/,555 W 25th St,,New York,10001,-74.00526086,40.75012695
Gallery of Ireland,(718) 458-2960,http://www.merchantcircle.com/business/Gallery.of.Ireland.718-458-2960,3931 50th Street,,Woodside,11377,-73.91369901,40.74795987
Gardner & Barr Inc,(212) 752-0555,http://www.gardnerandbarr.com/,305 E 61th St,,New York,10065,-73.96278276,40.76174806
Garth Clark Gallery,(212) 246-2205,http://www.garthclark.com/,24 W 57th St,Ste 305,New York,10019,-73.97564541,40.76328542
Garth Clark Gallery's Project Space,(718) 706-2491,http://www.nyc.com/arts__attractions/garth_clark_gallerys_project_space.934/whats_nearby.aspx,4546 21st St,,Long Island City,11101,-73.94831899,40.74618054
Gasser & Grunert,(212) 807-9494,http://gassergrunert.net/test/,524 W 19th St,,New York,10011,-74.0073622,40.74558378
Gavin Brown's Enterprise Corp,(212) 627-5258,http://www.gavinbrown.biz/,620 Greenwich St,,New York,10014,-74.00859302,40.73054991
Generous Miracles Space Ltd,(212) 352-2858,http://www.nyc.com/arts__attractions/generous_miracles_space_ltd.166/map_location.aspx,529 W 20th St,,New York,10011,-74.00701009,40.74669373
George Adams Gallery,(212)-564-8480,http://www.georgeadamsgallery.com/,525 West 26th Street,First Floor,New York,10001,-74.00402678,40.75025399
George Billis Gallery,(212) 645-2621,http://www.georgebillis.com/,555 W 25th St,,New York,10001,-74.00542748,40.75007756
Geos Art Gallery and Tuxedos,(718) 276-6215,http://www.geosartexpression.com/,20019 119th Ave,,Saint Albans,11412,-73.7506114,40.69203361
Gerold Wunderlich & Co,(212) 974-8444,http://ny.serviceslisted.com/1655177-GeroldWunderlichCO.htm,50 W 57th St,,New York,10019,-73.97659531,40.76374157
Gian Enzo Sperone,(212) 255-7363,http://ny.citysquares.com/manhattan/west-village/arts-entertainment/artists-art-dealers/gian-enzo-sperone,603 Greenwich St,,New York,10014,-74.00803261,40.72978029
Giraud Pissarro Segalot,(212) 988-9171,http://www.gpspartners.com/,132 E 70th St,,New York,10021,-73.96355105,40.76906697
Gleason Tim Gallery,(212) 966-5777,http://www.yellowbot.com/tim-gleason-gallery-new-york-ny.html,194 Elizabeth St,,New York,10012,-73.99427302,40.7217016
Global Passages Inc,(212) 759-5669,http://www.rateitall.com/i-409630-global-passages-incorporated.aspx,205 E 60th St,,New York,10022,-73.96551116,40.76214537
Godel & Co Inc,(212) 288-7272,http://www.godelfineart.com/,39 E 72nd St,,New York,10021,-73.96478601,40.77181139
Goedhuis Contemporary Ltd,(212) 535-6954,http://www.goedhuiscontemporary.com/,42 E 76th St,,New York,10021,-73.96297173,40.77396711
Goethe-Institut Wyoming Building,212-439-8700,http://www.goethe.de/Ins/Us/ney/prj/wyo/enindex.htm,5 East 3rd Street,,New York,10003,-73.99111875,40.72634319
Golden Caren Fine Arts,(212) 727-8304,http://www.carengoldenfineart.com,526 W 26th St,,New York,10001,-74.0045047,40.75008938
Goodman James Gallery,(212) 593-3737,http://jamesgoodmangallery.com/index.cfm,41 E 57th St,,New York,10022,-73.97187972,40.76227754
Grant Gallery,(646) 479-8815,http://www.grantgallery.com/,7 Mercer St,,New York,10013,-74.00244284,40.72044661
Great Modern Pictures,(212) 242-2581,http://www.greatmodernpictures.com/,EMPIRE STATE BUILDING,350 Fifth Avenue,New York,10001,-73.98565422,40.74843275
Greeley Square Gallery,(212) 868-6610,http://www.g2artgallery.com/,32 W 31st St,,New York,10001,-73.98769078,40.74704275
Green Essie Galleries Inc,(212) 368-9635,http://www.essiegreengalleries.com/,419 Convent Ave,,New York,10031,-73.94466951,40.82638148
Greene Naftali Inc,(212) 463-7770,http://www.greenenaftaligallery.com/,526 W 26th St,,New York,10001,-74.0043835,40.75003598
Greene Space Gallery,(212) 431-8720,http://www.city-data.com/businesses/113064489-greene-space-gallery-new-york-ny.html,105 Greene St,,New York,10012,-74.00004007,40.72450899
Littlejohn Contemporary Art,(212) 980-2323,http://www.littlejohncontemporary.com/,41 E 57th St,,New York,10022,-73.97203416,40.76233983
Lizan Tops Associates,(212) 534-3316,http://www.lizantops.com/Home.html,8 E 92nd St,,New York,10128,-73.95713277,40.7849199
Lladro Museum & Collector's Society,(212) 838-9352,http://www.lladro.com/,43 W 57th St,,New York,10019,-73.97625732,40.76412964
Lladro USA,(212) 838-9771,http://www.nyc.com/arts__attractions/lladro_usa.310/whats_nearby.aspx,43 W 57th St,,New York,10019,-73.97619602,40.76421069
Location One,(212) 334-3347,http://www.location1.org/,26 Greene St.,,New York,10013,-74.00246503,40.72098729
Lombard-Fried Fine Arts Inc,(212) 967-8040,http://www.getfave.com/locations/829682-lombard-fried-fine-arts-inc,531 W 26th St,,New York,10001,-74.00376627,40.75032119
Long Fine Art,(212) 337-1940,http://www.nyc.com/arts__attractions/long_fine_art.273/editorial_review.aspx,427 W 14th St,,New York,10014,-74.00645063,40.74172005
Lower Manhattan Cultural Council,(212) 219-9401,http://www.lmcc.net/,125 Maiden Lane,2nd Floor,New York,10038,-74.00625208,40.70660442
Lublin Mary Fine Arts,(212) 570-0319,http://www.pada.net/members/memDetail.php/25,954 Lexington Avenue,Box 254,New York,10021,-73.96345944,40.76897164
Lucas Schoormans Gallery,(212) 243-3159,http://oneartworld.com/Lucas+Schoormans+Gallery.html,508 W. 26th St.,11B,New York,10001,-74.00374214,40.74976146
Ludlow 38,(212) 228-6848,http://www.ludlow38.org/,38 Ludlow Street,,New York,10002,-73.99014614,40.71607367
Luhring Augustine Gallery Inc,(212) 206-9100,http://www.luhringaugustine.com/,531 W 24th St,,New York,10011,-74.0051018,40.74910894
Lumbard Jean,(212) 996-4484,http://66.111.11.24/arts__attractions/lumbard_jean.851/whats_nearby.aspx,17 E 96th St,,New York,10128,-73.95437532,40.78759697
Lun Yee Assn,(212) 431-9497,http://www.speendex.com/New-York/New-York-City/Shopping/Arts/Lun-Yee-Assn-l495991.html,167 Canal St,,New York,10013,-73.99696834,40.71679772
Lunarbase Inc,(718) 599-9205,http://brooklynny.zemantics.com/business/lunarbase-inc,197 Grand St,,Brooklyn,11211,-73.96034432,40.71427465
Lurie Tamar & Ranan,(212) 888-4866,http://www.rananlurie.com/,721 5th Ave,,New York,10022,-73.97398762,40.762467
M & R Sayer Fine Art Llc,(212) 517-8811,http://www.sayerfinearts.com/,129 E 71st St,,New York,10021,-73.96305316,40.77012253
M K J Art Gallery,(212) 481-7447,http://ny.serviceslisted.com/1654620-MKJArtGallery.htm,214 E 23rd St,,New York,10010,-73.98242013,40.73819666
MacCarone Inc,(212) 431-4977,http://www.maccarone.net/,630 Greenwich Street,,New York,10014,-74.0084803,40.73093144
Malcolm Christian T Fine Arts Managemnt Svc,(212) 947-3835,http://m.nyc.com/arts__attractions/malcolm_christian_t_fine_arts_managemnt_svc.620/map_location.aspx,227 W 29th St,,New York,10001,-73.99402296,40.74846917
Manhattan Art,(212) 736-3336,http://loqal.com/manhattan+art.9.55597755p.home.html,13 W 36th St,,New York,10018,-73.9844838,40.75031251
Mansion Gracie Gallery,(212) 505-7055,http://www.artnet.com/graciemansion.html,101 Second Avenue,#1,New York,10003,-73.98886924,40.72740796
Marbella Gallery,(212) 288-7809,http://www.yelp.com/biz/marbella-gallery-new-york,28 E 72nd St,,New York,10021,-73.965305,40.77144369
Marc Jancou Contemporary,(212) 473-2100,http://www.marcjancou.com/,680 Broadway,,New York,10012,-73.99458298,40.72749292
Marc Jancou Fine Art Ltd,(212) 717-1700,http://www.artinfo.com/galleryguide/19982/6522/marc-jancou-fine-art/visit/,801 Madison Ave,,New York,10021,-73.96727019,40.76877056
Marcus Curt Gallery Inc,(212) 226-3200,http://www.curtmarcusgallery.com/,2 5th Ave,,New York,10011,-73.99703426,40.73199551
Margaret Thatcher Projects,(212) 675-0222,http://www.thatcherprojects.com/,539 West 23rd Street,Ground Floor,New York,10011,-74.00548674,40.74850268
Margo Feiden Galleries Ltd,(212) 677-5330,http://www.alhirschfeld.com/index2.html,15 E 9th St,,New York,10003,-73.99482129,40.73257492
Marian Goodman Gallery,(212) 977-7160,http://www.mariangoodman.com/,24 W 57th St,Fl 4,New York,10019,-73.97568502,40.76338707
Marianne Boesky Gallery,(212) 680-9889,http://www.marianneboeskygallery.com/,509 West 24th Street,,New York,10011,-74.00424042,40.74883917
Marie Walsh Sharpe Art Foundation Art,(212) 925-3008,http://sharpeartfdn.qwestoffice.net/freestudiospace.htm,443 Greenwich St,,New York,10013,-74.00938295,40.72321957
Markey Lawrence Inc,(212) 517-9892,http://www.rateitall.com/i-409842-markey-lawrence-incorporated.aspx,42 E 76th St,,New York,10021,-73.9630306,40.77388979
Marlborough Gallery,(212) 397-0317,http://www.marlboroughgallery.com/,40 W 57th St,,New York,10019,-73.97630725,40.7635578
Martin Lawrence Galleries,(212) 995-8865,http://martinlawrence.com/index3.html,457 W Broadway,,New York,10012,-74.00024343,40.726129
Martinez Gallery,(212) 563-1075,http://www.martinezgallery.com/,515 W 27th St,,New York,10001,-74.0030963,40.75078087
Mary Boone Gallery,(212) 752-2929,http://www.maryboonegallery.com/,745 5th Ave,,New York,10151,-73.97320639,40.76335676
Mary Ryan Gallery,(212) 397-0669,http://www.maryryangallery.com/,24 W. 57th St.,,New York,10019,-73.97559554,40.76334399
Master Drawing Assoc,(718) 573-1299,http://www.masterdrawings.org/,669 Monroe St,,Brooklyn,11221,-73.92992226,40.68805924
Master Framemakers,(212) 308-6152,http://www.apfgroup.com/,219 East 60th Street,,New York,10022,-73.96508959,40.761933
Mathes Barbara Gallery,(212) 570-4190,http://www.barbaramathesgallery.com/,22 E 80th St,,New York,10075,-73.96216484,40.77696659
Matthew Marks Gallery - 22nd St.,(212) 243-1650,http://www.matthewmarks.com/,522 W 22nd St.,,New York,10011,-74.00589658,40.74729741
Matthew Marks Gallery - 24th St.,(212) 243-0200,http://www.matthewmarks.com/,523 W. 24th St.,,New York,10011,-74.00474728,40.74897108
Max Protetech Gallery,(212) 633-6999,http://www.maxprotetch.com/,511 W 22nd St,,New York,10011,-74.00529719,40.74749803
Maxwell Davidson Gallery,(212) 759-7555,http://www.davidsongallery.com/,724 5th Ave,,New York,10019,-73.97461594,40.76264197
Mc Dougal A,(212) 874-2172,http://www.rateitall.com/i-409859-mc-dougal-a.aspx,98 Riverside Dr,,New York,10024,-73.98091304,40.78655119
McCarron Paul Fine Prints & Drawings,(212) 772-1181,http://www.paulmccarron.com/,1014 Madison Ave,,New York,10021,-73.96278657,40.77592685
McGinnis Cheryl Gallery,(212) 594-4066,http://www.cherylmcginnisgallery.com/,555 Eighth Avenue,#710,New York,10024,-73.99214583,40.75467997
McKee Gallery,(212) 688-5951,http://mckeegallery.com/,745 Fifth Ave.,4th Fl.,New York,10151,-73.97329467,40.76323752
McKenzie Fine Art Inc,(212) 989-5467,http://www.mckenziefineart.com/,511 W 25th St,,New York,10001,-74.00377141,40.74943639
Medialia Corp,(212) 971-0953,http://www.speendex.com/New-York/New-York-City/Shopping/Arts/Medialia-Corp-l495927.html,335 W 38th St,,New York,10018,-73.99314536,40.75559932
Mehu Gallery,(212) 222-3334,http://m.nyc.com/arts__attractions/mehu_gallery.444/map_location.aspx,21 W 100th St,,New York,10025,-73.96368099,40.79479918
Meisel Louis K Gallery,(212) 677-1340,http://www.meiselgallery.com/LKMG/,141 Prince St,,New York,10012,-74.00047928,40.72569434
Meisel Susan P Decorative Arts,(212) 254-0137,http://www.nyc.com/arts__attractions/meisel_susan_p_decorative_arts.220/editorial_review.aspx,141 Prince St,,New York,10012,-74.00042049,40.72576887
Merrin Gallery,(212) 757-2884,http://www.speendex.com/New-York/New-York-City/Shopping/Arts/Merrin-Gallery-l496371.html,724 5th Ave,,New York,10019,-73.97468953,40.76275397
Merton Simpson Gallery Inc,(212) 686-6735,http://www.mertonsimpsongallery.com/,38 W 28th St,Fl 5,New York,10001,-73.98965866,40.7454474
Messineo Atr Projects,(212) 414-0827,http://www.messineowyman.com/,227 West 29th Street,4th Floor (#111),New York,10001,-73.99393229,40.74859961
Metro Art,(718) 326-4102,http://www.nyc.com/arts__attractions/metro_art.1872/whats_nearby.aspx,7823 Metropolitan Ave,,Middle Village,11379,-73.87450325,40.71335896
Metro Art and Frame,(718) 432-0632,http://framart.com/,585 W 235th St,,Bronx,10463,-73.91115651,40.88604954
Metro Pictures,(212) 206-7100,http://www.metropicturesgallery.com/,519 W 24th St,,New York,10011,-74.00459373,40.74895493
Miakey Art Gallery,(718) 686-0788,http://find.mapmuse.com/details/art-galleries/3229245,5402 7th Ave,,Brooklyn,11220,-74.00855558,40.64025482
Michael Werner Gallery,(212) 988-1623,http://www.michaelwerner.com/,4 E. 77th St.,,New York,10021,-73.96426209,40.77524709
Michail- Lombardo Gallery,(212) 472-2400,http://www.michaillombardogallery.com/ap/index.html,829 Madison Ave,,New York,10021,-73.96654242,40.76984146
Michel Soskine Inc,(212) 988-2050,http://www.soskine.com/en/index.html,900 Park Ave,,New York,10021,-73.96069064,40.77611498
Michelle Rosenfeld Gallery,(212) 734-0900,http://michellerosenfeldgallery.com/,16 E 79th St,,New York,10021,-73.96278905,40.77625969
Miele Frank J Gallery,(212) 249-7250,http://www.americanfolkart.com/,1086 Madison Ave,,New York,10028,-73.96106462,40.77816985
Miller Geisler Gallery Llc,(212) 255-2885,http://www.nyc.com/arts__attractions/miller_geisler_gallery_llc.859/whats_nearby.aspx,511 W 25th St,,New York,10001,-74.00402626,40.74952855
Miller Laurence Gallery Inc,(212) 397-3930,http://www.laurencemillergallery.com/,20 W 57th St,Lbby,New York,10019,-73.97553262,40.76323165
Mimi Ferzt Inc,(212) 343-9377,http://www.mimiferzt.com/,81 Greene St,,New York,10012,-74.00074603,40.72369075
Minetta Brook Inc,(212) 431-7165,http://www.yelp.com/biz/minetta-brook-inc-new-york,105 Hudson St,,New York,10001,-74.00901738,40.7194907
Mip Art Realty Inc,(212) 431-9474,http://www.city-data.com/businesses/578718041-mip-art-realty-inc-new-york-ny.html,83 Mercer St,Fl 5,New York,10012,-74.0002835,40.72296988
Mitchell Algus Gallery,(212) 242-6242,http://www.mitchellalgus.com/,511 W 25th St,,New York,10001,-74.00378614,40.74953975
Mitchell-Innes & Nash,(212) 744-7400,http://www.miandn.com/,1018 Madison Ave,,New York,10021,-73.96257961,40.77599315
Mixed Greens Gallery,(212) 331-8888,http://www.mixedgreens.com/ArtWeb/html/aboutpage.asp?page=index.htm,531 W 26th St,,New York,10001,-74.0038784,40.75030913
Mobile Concept Inc,(718) 353-6600,http://www.nyc.com/arts__attractions/mobile_concept_inc.1880/editorial_review.aspx,3655 Main St,,Flushing,11354,-73.83095587,40.76192417
Modern Art & Framing,(212) 307-7391,http://www.nyc.com/arts__attractions/modern_art__framing.1690/whats_nearby.aspx,877 7th Ave,,New York,10019,-73.98032204,40.76455537
Moeller Achim Fine Art Ltd,(212) 644-2133,http://www.moellerart.com/index.php,36 E 64th St,,New York,10065,-73.96863603,40.76627437
Momenta Art Gallery,(718) 218-8058,http://momentaart.org/,359 Bedford Ave,,Brooklyn,11211,-73.96295355,40.71150042
Monalisa Art Gallery,(212) 722-4989,http://www.monalisaframing.com/default/index.cfm,1758 1st Ave,,New York,10128,-73.94665138,40.78010875
Montserrat Gallery Inc,(212) 941-8899,http://www.ny-companies.com/business-in-new-york/retail-stores-companies/160100-montserrat-gallery-inc.html,584 Broadway,,New York,10012,-73.99692952,40.7247167
Mooney Robert J Arts Management,(718) 852-9080,http://local.botw.org/New_York/Brooklyn/Mooney_Robert_J_Arts_Management/34351212.html,174 Pacific St,,Brooklyn,11201,-73.99361475,40.68908922
Morales David,(212) 564-2335,http://www.nyc.com/arts__attractions/morales_david.583/map_location.aspx,325 W 38th St,Lbby,New York,10018,-73.99280898,40.75539588
Morgan Art Consulting,(212) 447-0490,http://morganartconsulting.com/,303 Park Avenue South,#1204,New York,10010,-73.98578003,40.7402545
Morning Star Gallery Ltd,(212) 334-9330,http://www.nyc.com/arts__attractions/morning_star_gallery_ltd.532/editorial_review.aspx,9809 64th Rd,,Rego Park,11374,-73.85783326,40.72992529
Naegele Amyas Bases & African Art,(212) 465-0524,http://www.merchantcircle.com/business/Naegele.Amyas.Bases.And.African.Art.212-465-0524,347 W 36th St,,New York,10018,-73.99433591,40.7544864
Naiman Lee Fine Art,(212) 362-4090,http://www.nyc.com/arts__attractions/naiman_lee_fine_art.1703/whats_nearby.aspx,300 Central Park W,,New York,10024,-73.96767395,40.78834442
Nancy Hoffman Gallery Inc,(212) 966-6676,http://www.nancyhoffmangallery.com/,429 W Broadway,,New York,10012,-74.0010241,40.72518023
Nancy Margolis Gallery Inc,(212) 242-3013,http://nancymargolisgallery.com/,523 W 25th Street,,New York,10001,-74.00418365,40.74964656
Natalie Karg Ltd,(212) 563-7821,http://www.masterseek.com/id/7052478/Natalie-Karg-Ltd.htm,325 W 38th St,,New York,10018,-73.99266563,40.75533811
Nathaniel Moore Llc,(212) 965-9500,http://www.zipleaf.us/Companies/Nathaniel-Moore-LLC,121 Hudson St,,New York,10013,-74.00886383,40.72031106
Navarra Enrico,(212) 223-2828,http://www.enriconavarra.com/flash6.html,41 E 57th St,,New York,10022,-73.97200032,40.76250348
Neal Meltzer Fine Arts,(212) 829-9800,http://www.nealmeltzer.com/,600 Madison Ave,,New York,10022,-73.97241955,40.76294039
Neikrug Marjorie Appraisals,(212) 688-8779,http://newyorkny.zemantics.com/business/neikrug-marjorie-appraisals,136 E 64th St,,New York,10021,-73.96625979,40.76536882
Neuhoff Gallery Inc,(212)  838-1122,http://www.neuhoffgallery.com/,41 E 57th St,,New York,10022,-73.97205775,40.7624329
New Dorp Village Antiques Ltd,(718) 815-2526,http://businessfinder.silive.com/2321461/New-Dorp-Village-Antiques-Ltd-Staten-Island-NY,517 Broadway,,Staten Island,10310,-74.11581755,40.62843293
New York Art Expo Inc,(212) 363-8280,http://www.merchantcircle.com/business/New.York.Art.Expo.Inc.New.York.NY.212-363-8280,3 Hanover Sq,,New York,10004,-74.00960786,40.70500032
New York Art Gallery,(212) 396-0275,http://hellonewyorkcity.com/Business_Profile/10566336_5/New_York_Art_Gallery.cfm,1626 1st Ave,,New York,10028,-73.9497534,40.77582842
New York Gallery Tours,(212) 946-1548,http://www.nygallerytours.com/,82 Charles St,,New York,10014,-74.00394434,40.73459524
Nexus Gallery Inc,(212) 982-4712,http://www.nyc.com/arts__attractions/nexus_gallery_inc.125/whats_nearby.aspx,345 E 12th St,,New York,10003,-73.98394512,40.73042494
Nohra Haime Gallery,(212) 888-3550,http://www.artnet.com/nhaime.html,41 East 57th Street,,New York,10022,-73.9721042,40.76237002
Nolan Eckman Gallery,(212) 925-6190,http://ny.serviceslisted.com/1655106-NolanEckmanGallery.htm,560 Broadway,,New York,10012,-73.9977399,40.72397829
Northstar Research Associates Inc,(212) 721-7000,http://goliath.ecnext.com/coms2/product-compint-0000684313-page.html,215 W 88th St,Apt 8D,New York,10024,-73.97484366,40.78956299
Nyabinghi Africian Gift Shop,(212) 566-3336,http://www.nyc.com/arts__attractions/nyabinghi_africian_gift_shop.136/editorial_review.aspx,111 Chambers St,,New York,10007,-74.00815285,40.71523507
O J Art Gallery,(212) 420-0417,http://www.manta.com/coms2/dnbcompany_ccv29cr,446 Ave of the Americas,,New York,10011,-73.9982901,40.73488847
O.K. Harris Gallery,(212) 431-3600,http://www.okharris.com/,383 W. Broadway,,New York,10012,-74.00207056,40.72368862
Object-Image,(718) 623-2434,http://www.laurafantini.it/Documents/For_Immediate_Release09_2.pdf,91 5th Ave,,Brooklyn,11217,-73.97789833,40.67984871
Oditi Inc,(212) 427-5885,http://www.ibegin.com/directory/us/new-york/new-york/oditi-inc-1500-lexington-ave/,1500 Lexington Ave,,New York,10029,-73.95084961,40.78636482
Odyssia Gallery,(212) 486-7338,http://www.livevillage.com/newyork/art/odyssia-gallery.html,305 E 61st St,,New York,10021,-73.96269814,40.76187475
Old Print Shop Inc,(212) 683-3950,http://www.oldprintshop.com/,150 Lexington Ave,,New York,10016,-73.98194844,40.74367322
Omniguard Art Guarantee,(212) 577-9000,http://www.city-data.com/businesses/683951099-omni-guard-art-guarantee-new-york-ny.html,115 Broadway,,New York,10006,-74.01147224,40.70893881
One Twenty Eight,(212) 674-0244,http://www.galleryonetwentyeight.org/,128 Rivington St,,New York,10002,-73.98691303,40.71980652
Opera Gallery,(212) 966-6675,http://www.popaganda.com/events.htm,115 Spring St,,New York,10012,-73.99994844,40.72381494